{"type":"Topology","objects":{"data":{"geometries":[{"properties":{},"type":"MultiPolygon","arcs":[[[0]],[[1]],[[2]],[[3]],[[4]],[[5]],[[6]],[[7]],[[8]],[[9]],[[10]],[[11]],[[12]],[[13]],[[14]],[[15]],[[16]],[[17]],[[18]],[[19]],[[20]],[[21]],[[22]],[[23]],[[24]],[[25]],[[26]],[[27]],[[28]],[[29]],[[30]],[[31]],[[32]],[[33]],[[34]],[[35]],[[36]],[[37]],[[38]],[[39]],[[40]],[[41]],[[42]],[[43]],[[44]],[[45]],[[46]],[[47]],[[48]],[[49]],[[50]],[[51]],[[52]],[[53]],[[54]],[[55]],[[56]],[[57]],[[58]],[[59]],[[60]],[[61]],[[62]],[[63]],[[64]],[[65]],[[66]],[[67]],[[68]],[[69]],[[70]],[[71]],[[72]],[[73]],[[74]],[[75]],[[76]],[[77]],[[78]],[[79]],[[80]],[[81]],[[82]],[[83]],[[84]],[[85]],[[86]],[[87]],[[88]],[[89]],[[90]],[[91]],[[92]],[[93]],[[94]],[[95]],[[96]],[[97]],[[98]],[[99]],[[100]],[[101]],[[102]],[[103]],[[104]],[[105]],[[106]],[[107]],[[108]],[[109]],[[110]],[[111]],[[112]],[[113]],[[114]],[[115]],[[116]],[[117]],[[118]],[[119]],[[120]],[[121]],[[122]],[[123]],[[124]],[[125]],[[126]],[[127]],[[128]],[[129]],[[130]],[[131]],[[132]],[[133]],[[134]],[[135]],[[136]],[[137]],[[138]],[[139]],[[140]],[[141]],[[142]],[[143]],[[144]],[[145]],[[146]],[[147]],[[148]],[[149]],[[150]],[[151]],[[152]],[[153]],[[154]],[[155]],[[156]]],"id":1}],"type":"GeometryCollection"}},"bbox":[140.9618657997175,-39.158987530330556,149.97619755281158,-33.980636402904565],"transform":{"scale":[9.014340767434865e-06,5.178356305782296e-06],"translate":[140.9618657997175,-39.158987530330556]},"arcs":[[[467485,147203],[-1066,-19],[-1760,795],[-2287,432],[-579,-644],[-919,-245],[-499,-1127],[-1646,-263],[-383,-327],[-1611,-2363],[-273,-1055],[258,-308],[-278,-421],[-961,121],[-1160,-926],[-774,-62],[-118,-732],[-229,-11],[-256,-715],[50,-349],[-599,-860],[74,-617],[-849,-1613],[-84,-1815],[-599,-1095],[-169,-1602],[876,-1151],[-207,-476],[-508,746],[-993,8],[-347,580],[-400,99],[-1897,-1208],[-519,341],[-201,-325],[-339,108],[-857,-977],[-333,-15],[-290,545],[-412,169],[-912,-22],[-693,-463],[-446,131],[-678,-528],[87,-742],[-792,178],[118,-556],[-557,442],[-841,-284],[-45,-218],[-639,73],[99,446],[-512,375],[-31,475],[-387,203],[-526,-362],[-408,157],[-136,-245],[-760,25],[-682,-937],[215,-370],[-240,-222],[-158,1055],[-337,566],[314,2657],[-1096,1804],[-820,2070],[-2544,3524],[-873,1657],[-4398,5729],[-1130,1595],[-166,327],[120,174],[-439,56],[-1430,2162],[-452,337],[-38,496],[-329,-107],[-443,767],[-754,559],[-105,724],[-982,810],[-195,1121],[-287,-100],[-102,240],[-210,-221],[-40,382],[-440,304],[-487,908],[-301,-100],[-3836,3432],[-240,635],[-382,146],[-753,996],[-354,-46],[-152,527],[-398,108],[-418,859],[-435,68],[-20,299],[-1132,1238],[-21,399],[151,46],[259,-699],[1328,-576],[1444,565],[2732,-1935],[277,-494],[915,-196],[297,229],[538,-577],[1223,-360],[548,-427],[87,-1332],[257,-607],[389,-237],[-154,-452],[137,-309],[1996,-1629],[-132,-696],[487,-859],[867,-595],[4044,-1407],[409,-347],[2444,-359],[1576,321],[8015,3764],[5028,3652],[1183,1157],[1023,1476],[529,1291],[130,1073],[-500,801],[-687,379],[-88,376],[1177,2607],[697,1040],[176,1284],[747,142],[813,1043],[1135,2199],[295,1277],[36,1489],[-109,758],[-213,158],[-21,1502],[378,19],[309,548],[11,972],[194,301],[-124,832],[161,105],[172,-543],[636,363],[421,-67],[1857,2357],[1064,2404],[297,1636],[481,1236],[636,551],[391,1311],[405,312],[227,-309],[410,203],[706,1306],[992,828],[610,1591],[526,3038],[223,3885],[-70,3212],[-452,3341],[645,472],[-668,-302],[-755,4102],[-1881,5910],[-911,1805],[-344,139],[46,180],[-87,-150],[-782,1816],[-1713,2163],[-1137,738],[-932,-826],[-564,-1052],[-794,358],[-419,1263],[-1003,1207],[-956,2386],[233,371],[-133,1220],[-991,2029],[-906,1264],[-108,799],[773,-319],[-130,678],[-1378,2303],[208,1207],[-290,1278],[98,920],[-254,1371],[263,870],[-3,884],[-1117,1989],[9,577],[175,87],[-201,8],[-265,1188],[281,403],[-662,1123],[162,334],[-244,683],[-3700,3239],[-410,-145],[-226,-777],[97,968],[-395,190],[-214,-707],[186,956],[-931,67],[-568,-440],[435,-1061],[-520,-490],[-703,1604],[20,448],[-389,-17],[470,-1943],[-893,1763],[-166,-622],[391,-682],[-197,291],[145,-528],[352,-315],[-346,285],[-395,853],[249,-911],[680,-560],[-689,400],[-155,390],[-294,-240],[745,-1050],[208,-1432],[847,-64],[440,-671],[-829,-996],[-571,-397],[-1193,994],[-788,-130],[-263,482],[-347,-125],[-103,-319],[-464,867],[23,361],[-672,582],[-828,-386],[60,168],[-608,-694],[-645,-99],[-1126,-1460],[-1515,124],[-776,-321],[-1312,-1567],[-11,-2055],[-737,-1403],[-385,-1570],[-57,-2117],[245,-1049],[-349,-152],[-289,-616],[-2094,-359],[-1505,-1630],[-819,-348],[-1066,-22],[-937,-747],[-707,-1082],[-650,-523],[-194,-644],[-1518,-1987],[-616,-1176],[-907,-644],[-649,166],[-4072,-5408],[-2061,-37],[-1108,327],[-3494,-832],[-1176,-1367],[-615,-1730],[-880,-444],[-606,-1961],[-363,-424],[-11,-465],[-880,285],[-1311,-798],[-249,-288],[-145,-427],[-186,-214],[-1602,-790],[-238,110],[1907,775],[270,607],[291,373],[-552,-682],[-2072,-508],[-360,-1198],[162,-591],[-210,-800],[386,-429],[225,1507],[-101,539],[142,-483],[-106,-1068],[-587,-2805],[-157,-2820],[-220,-123],[-147,-587],[-172,4],[-182,571],[-1026,670],[-782,1303],[-205,15],[-46,-272],[-239,326],[-2,-382],[-165,409],[-377,194],[-799,-1307],[-446,462],[-26,679],[-293,178],[-680,-204],[-131,-569],[125,-303],[-436,69],[-358,-398],[-647,-1508],[-373,426],[223,215],[-25,427],[-3299,344],[-741,590],[-987,1471],[-1020,-640],[-605,-1305],[136,-296],[-217,-209],[74,-1111],[-184,-984],[-583,-704],[-484,-40],[-511,-690],[-637,-70],[-71,-302],[468,-241],[155,-378],[-722,-1024],[-19,-1352],[-179,-126],[-297,-2769],[1060,-1473],[378,-327],[594,-34],[1206,665],[440,-1049],[642,-176],[897,-1131],[1548,25],[286,1599],[-67,1274],[780,3213],[787,-3069],[1123,-1896],[1943,-1971],[933,-642],[1042,-276],[1295,200],[901,470],[826,-180],[1675,472],[728,-152],[2609,991],[822,57],[864,776],[3197,4222],[3521,3262],[562,908],[2055,-1038],[1720,155],[2974,-1547],[847,-1522],[719,-448],[918,-2471],[620,-708],[-332,-539],[-130,-1431],[19,-1232],[380,-1939],[-801,-2942],[-670,-4197],[-606,-1814],[107,717],[-348,-604],[-332,-141],[306,497],[-344,-172],[-157,197],[628,691],[416,2308],[-205,380],[-521,109],[64,510],[-386,389],[-817,-603],[-970,-913],[-443,-918],[-854,-602],[-447,-1404],[-1934,-3250],[-40,-453],[-855,-1166],[-808,-1824],[-263,540],[-345,-135],[106,-200],[-182,-103],[435,-299],[-245,-341],[-99,-526],[151,130],[1295,-1791],[-307,-84],[-141,-628],[1042,7],[692,615],[786,206],[259,392],[968,238],[608,-585],[-896,-447],[-487,-1222],[-1720,418],[-1593,-258],[-1080,-547],[-588,-1460],[145,-826],[-256,-869],[-4971,2888],[-3368,1094],[-1458,59],[-1900,-669],[-1074,-1683],[-430,170],[232,-774],[528,-555],[-204,-190],[-2700,488],[-4000,1205],[-1168,39],[-373,-601],[-861,-419],[-493,-770],[-819,-241],[-883,-968],[-880,-187],[-1516,-883],[158,-626],[-777,-991],[-4281,-2373],[-564,-974],[113,-565],[-282,-963],[196,-766],[-818,-353],[-138,-698],[-976,7],[-727,-516],[-637,-773],[-109,-728],[-854,-959],[-372,-1276],[-687,-916],[-764,-437],[-751,-1129],[-1023,-443],[-561,-1093],[271,-1364],[-3190,-680],[-2800,-1483],[-599,-651],[-190,-892],[-620,36],[-747,-856],[-140,-1404],[521,-486],[-4018,-326],[-1551,-800],[-620,-979],[-330,-1264],[-583,-553],[-264,-1728],[-840,-682],[-587,-1500],[-4243,94],[-2313,-698],[-1164,-827],[-208,-522],[-2,-1093],[-258,113],[-51,-412],[-705,-887],[-674,-310],[-637,-869],[-1218,-2570],[-1377,-1940],[-1020,-2249],[-287,-1985],[1076,-1139],[-374,-1102],[-888,-290],[171,-201],[-16,-815],[-279,-833],[-264,-313],[-584,-33],[-726,-1672],[-1275,-194],[-400,-787],[-760,-501],[-466,-894],[-1214,-989],[-391,-741],[227,-873],[-651,-1980],[56,-523],[-895,-2209],[-1853,-1793],[314,-1225],[-775,-365],[-370,-844],[-1196,-857],[-321,-594],[75,-299],[-675,-900],[-200,-1033],[46,-519],[304,-415],[-2681,-1432],[-233,-680],[50,-1620],[-1018,-454],[-1355,276],[-455,-350],[-500,135],[-955,-931],[-823,44],[-1967,-947],[-208,-569],[-266,146],[-416,-341],[-472,320],[-401,-377],[-448,13],[-747,-1245],[-2377,-897],[-209,-244],[-3,-528],[-442,-88],[-646,-652],[-642,47],[-176,-426],[-538,-95],[-1383,-1105],[-752,-300],[-849,-1033],[-706,-1510],[2,-1602],[255,-253],[116,184],[-15,-336],[595,-370],[-1435,-1368],[-311,-1811],[229,-342],[-502,-692],[-1857,-1750],[-541,204],[-1988,-360],[-685,-577],[-2098,-3047],[-208,-795],[-1064,-1239],[-279,-913],[130,-737],[-522,-1085],[-1633,-1782],[-470,-55],[97,-561],[-757,-1369],[-1230,397],[-338,-289],[-230,187],[-1220,-410],[-978,183],[-814,-493],[-962,992],[-52,598],[-317,462],[-723,613],[112,618],[-199,858],[-2672,4176],[-426,1113],[-3402,3794],[-637,1241],[-544,198],[-289,-235],[-517,401],[-175,-276],[-629,-83],[-321,628],[-251,-285],[-179,158],[27,737],[-764,1021],[-2421,2192],[-1826,1113],[-544,-279],[-475,223],[18,-299],[-941,190],[-520,-333],[-411,292],[-350,-423],[-1647,1121],[-1167,236],[-649,-666],[8,-328],[-1765,-696],[-37,-774],[-750,320],[-210,-561],[-456,211],[-280,-598],[112,-568],[-914,-303],[229,-437],[-1175,956],[-1166,5],[-625,300],[-221,817],[-633,241],[-85,275],[-503,-144],[-515,364],[-1531,2405],[-555,340],[-42,564],[-646,205],[-75,1162],[-447,70],[-2393,4339],[-682,937],[-352,-8],[-409,1149],[-3112,4595],[-1245,1486],[-659,558],[-189,-116],[-111,583],[-941,1047],[-839,295],[-99,441],[-237,-60],[-6,187],[-88,127],[-309,-213],[48,642],[-461,21],[-183,456],[-440,-259],[60,459],[-380,-201],[263,313],[-79,65],[-502,-296],[64,204],[-618,-42],[2,298],[-156,-379],[-437,-31],[353,554],[-140,240],[-99,-119],[-110,575],[-153,-111],[-32,270],[-595,273],[-349,-75],[-149,352],[-281,-326],[-74,442],[-231,61],[96,589],[-236,362],[-916,-10],[150,235],[-187,-100],[107,140],[-350,312],[-403,68],[-148,510],[-647,271],[-3139,508],[-524,-487],[-831,-187],[-2994,1080],[-381,-878],[-754,359],[-69,-942],[-797,630],[218,156],[-223,395],[-312,-108],[-301,586],[-301,-258],[135,259],[-147,283],[-110,-190],[-42,332],[-73,-352],[-442,-269],[-223,375],[-271,-112],[-315,685],[-147,-186],[-3,414],[-682,675],[-937,100],[-380,-227],[-286,385],[-488,121],[-964,-377],[-140,997],[-295,224],[-307,1],[-116,-377],[-566,13],[24,285],[-317,-203],[127,304],[-182,392],[170,39],[-131,226],[182,316],[-647,786],[-107,537],[-543,-126],[3,244],[-171,-112],[-75,334],[-593,514],[-821,-155],[-458,225],[-353,446],[326,743],[-403,190],[-166,669],[-462,-27],[-300,-557],[-52,469],[-894,1061],[-372,-22],[-176,-478],[-253,-37],[-525,394],[77,497],[-540,-307],[-119,469],[-304,-50],[-370,757],[-484,500],[-223,-70],[137,422],[-336,-138],[-358,785],[-447,239],[-945,1280],[-374,3],[-337,752],[-492,336],[-271,665],[-2937,3821],[-1394,1242],[-213,472],[-689,-111],[83,568],[-634,648],[125,563],[-613,-44],[-42,662],[-395,250],[-287,686],[-516,374],[-217,-302],[72,357],[-330,-175],[186,628],[-299,-240],[-120,514],[-276,-243],[-276,254],[-568,1034],[-2057,2457],[-1998,2143],[-459,102],[-317,606],[-203,-47],[-267,735],[-1322,850],[-206,625],[-320,-47],[-1229,1711],[-311,-44],[-2358,2830],[-3971,3087],[-2052,515],[-1013,1276],[-856,555],[-710,89],[-767,-312],[-296,-621],[-15,-733],[503,125],[-656,-566],[15,340],[-227,174],[-124,-512],[-496,1064],[-320,-64],[-135,348],[-421,37],[-268,344],[-339,-134],[175,516],[-233,366],[-3610,3996],[-5351,4115],[-3170,-356],[-785,-442],[-265,-928],[-722,257],[-1221,-558],[-842,707],[-1041,-733],[-865,-55],[-679,-794],[-12,-383],[-209,603],[-436,199],[-2065,-433],[-1168,-1096],[-741,-1501],[-40,-1922],[296,-305],[494,266],[-115,-405],[380,79],[174,-254],[-1124,-1019],[-371,363],[165,467],[-556,-683],[-391,234],[-104,398],[-786,150],[-227,-346],[-574,234],[-358,-494],[-511,390],[-350,-186],[-222,215],[-959,-483],[-765,195],[22,223],[-349,-322],[-127,517],[-700,322],[59,-281],[-172,-60],[-647,398],[-1169,-378],[-909,319],[-153,-307],[-682,445],[-158,-368],[-261,948],[-776,1132],[-751,130],[-311,534],[-299,-142],[-495,723],[-738,514],[-800,13],[16,297],[-853,868],[-2718,1856],[-2626,2932],[-626,409],[-869,1348],[-3771,4109],[-3585,3048],[-4532,3155],[-2884,1611],[4,-239],[-406,96],[-2038,927],[-4020,850],[-4578,502],[-3812,1014],[-3065,87],[-4248,-1214],[114,267],[-286,-391],[-2512,-1511],[-1166,-1311],[-600,-176],[-887,-1355],[-581,-340],[-1435,-1642],[-2907,-2317],[-1066,-1611],[-267,-1524],[1175,-2259],[-208,-1834],[1737,110],[-165,-1216],[217,733],[57,-48],[-388,-1880],[639,-1474],[-197,-33],[885,-1898],[124,-689],[944,-563],[-138,-934],[980,-1914],[-1667,171],[-806,-250],[-273,-459],[292,-861],[-191,-1168],[-1017,1177],[-266,1396],[-359,-230],[-965,251],[-1360,877],[-1263,102],[-687,-360],[-363,-635],[-457,-2043],[-864,-408],[-265,-2178],[223,-1041],[-194,-227],[10,-529],[-470,-303],[-134,-813],[-362,249],[-484,-427],[-119,374],[-290,2],[-361,648],[-567,203],[-498,671],[-125,1245],[-427,383],[-5,712],[482,343],[321,848],[-1024,2863],[-2222,2233],[-4236,3161],[-1519,470],[-1437,-124],[-1726,-598],[-1303,-1096],[-250,-836],[506,-1273],[160,-1503],[339,-669],[-71,-973],[-1337,246],[-697,1035],[-636,460],[-1647,99],[-1135,1882],[59,1346],[200,489],[-99,424],[310,927],[359,201],[9,455],[1316,1500],[736,477],[838,1608],[-620,3635],[-1389,3661],[-2438,5023],[-6914,10451],[-3691,5041],[-3798,4613],[-4809,4969],[-503,229],[-3301,3262],[-4953,3995],[-546,127],[-2426,2370],[-5567,4178],[-4183,2276],[-2774,734],[689,62809],[173,2453],[-161,89],[195,49339],[-328,45058],[107,37212],[-366,58285],[-608,190353],[346,69403],[-208,183550],[-276,66213],[120,2],[82,22231],[378,-88],[345,-633],[-200,-994],[40,-1387],[211,-220],[628,124],[472,-538],[28,-890],[-550,-529],[-61,-382],[1268,-177],[-698,-1115],[550,-869],[0,-1206],[335,-776],[262,-210],[294,156],[137,1574],[384,619],[740,-708],[832,-249],[-947,-569],[-211,-2221],[890,-1181],[790,-395],[156,-1691],[537,-710],[407,109],[58,317],[-432,810],[12,415],[954,801],[-132,1101],[361,1074],[780,-727],[230,-618],[-443,-1681],[335,-1872],[727,-5],[436,692],[972,495],[432,950],[323,-1827],[381,-654],[522,-144],[551,483],[365,-219],[125,-528],[-360,-1137],[279,-794],[433,-324],[633,367],[296,920],[-225,1809],[-367,483],[-554,191],[37,415],[737,844],[756,-105],[651,-1903],[1489,-736],[876,277],[1006,1134],[37,-786],[592,-368],[223,1378],[901,363],[-222,-992],[259,-875],[-954,-412],[-110,-286],[254,-351],[559,327],[222,-191],[54,-2550],[578,-476],[774,265],[353,495],[237,1205],[388,208],[23,-1536],[414,-1405],[318,-469],[527,-190],[630,196],[281,647],[-165,839],[-610,767],[550,184],[76,791],[747,408],[232,1284],[442,726],[556,99],[537,-808],[434,724],[272,-6],[13,-1404],[691,-909],[856,574],[149,1304],[475,505],[272,-473],[51,-1005],[277,-819],[-615,-1688],[96,-1041],[544,-143],[515,1773],[363,264],[467,-116],[382,-607],[630,-2096],[740,-1164],[498,-176],[427,-928],[1647,-596],[-66,-892],[315,-413],[1439,396],[409,-144],[108,-752],[-543,-1652],[360,-463],[649,344],[366,-268],[25,-571],[-336,-644],[10,-854],[192,-232],[354,43],[365,497],[169,1030],[942,502],[552,715],[232,2325],[1162,306],[408,-429],[193,-1577],[484,-1159],[334,136],[-230,1199],[1319,-375],[329,-547],[107,-1342],[289,-542],[471,76],[1220,1378],[542,-126],[229,-837],[-471,-1887],[148,-857],[502,-689],[580,-157],[1444,1003],[414,-62],[93,-358],[-294,-1301],[79,-1051],[1302,-1559],[475,105],[-29,967],[231,282],[1480,-935],[551,307],[248,975],[1288,-815],[364,408],[-37,806],[181,439],[842,49],[613,-807],[469,-2001],[679,-1652],[877,-619],[-158,-570],[-734,-368],[-448,-937],[110,-687],[773,-778],[438,-956],[-153,-703],[-963,-307],[-263,-407],[-7,-645],[442,-510],[1061,619],[1268,168],[311,329],[285,1114],[-624,1810],[304,796],[499,-245],[712,-1447],[363,-125],[972,686],[193,1034],[247,200],[747,-117],[656,-871],[1199,-541],[465,546],[15,1475],[166,282],[675,-945],[827,108],[295,626],[-110,783],[-409,383],[-935,4],[-383,883],[419,885],[1043,768],[44,1263],[-402,1191],[-333,149],[-554,-440],[-391,5],[-381,414],[-53,668],[379,235],[885,-784],[1030,1099],[408,-330],[475,-1149],[665,94],[275,391],[-6,961],[-1014,1982],[391,-5],[321,-861],[341,-323],[740,-46],[459,1020],[-229,2016],[288,1586],[2443,926],[2527,2987],[1233,-211],[684,741],[1129,539],[374,-128],[255,-438],[244,-2640],[277,-439],[414,-64],[502,430],[703,1369],[-488,2231],[203,486],[461,106],[1651,-2403],[696,192],[625,1086],[398,-145],[-44,-586],[-824,-664],[-154,-431],[76,-736],[404,-395],[641,145],[918,1281],[765,567],[154,-487],[-511,-1845],[245,-584],[394,51],[404,841],[262,110],[474,-673],[1175,-67],[582,-917],[969,-203],[1121,-1229],[1773,-921],[301,124],[732,1449],[220,-278],[-130,-806],[195,-253],[1107,591],[502,-93],[525,-544],[458,-1149],[471,1314],[878,1197],[-448,1821],[2081,741],[517,-624],[572,-224],[1028,187],[798,-2166],[-461,-1702],[322,-449],[613,-257],[383,234],[140,393],[-74,1335],[183,1128],[582,537],[339,-203],[660,-1640],[929,-1348],[522,-190],[372,169],[210,576],[-366,1425],[79,1130],[323,941],[554,448],[804,-46],[900,-1614],[606,531],[1600,-1315],[1037,25],[296,610],[-978,1089],[-309,2134],[381,189],[559,-431],[536,-9],[935,1232],[303,93],[466,-653],[18,-541],[-881,-1014],[-593,-1490],[81,-1385],[825,-706],[1366,820],[1472,-61],[1446,-1072],[234,-815],[-63,-593],[-366,-693],[-807,-462],[-139,-1143],[250,-577],[781,-316],[321,-408],[581,-3128],[1141,314],[1370,-1083],[770,477],[806,28],[219,485],[-348,2105],[184,890],[524,18],[873,-735],[588,91],[259,349],[355,1388],[573,460],[1988,-846],[-817,-3484],[246,-233],[560,191],[-346,-966],[304,-1260],[1349,-159],[340,1415],[280,138],[707,-932],[922,-573],[861,-45],[1415,515],[983,-1622],[-116,-1066],[283,-2525],[472,-57],[324,881],[749,-1042],[87,-455],[-44,-961],[-370,-297],[-567,-1099],[677,-907],[288,-775],[104,-1047],[-154,-1524],[-234,-457],[-743,-251],[-261,-1277],[1198,-548],[704,-1553],[-537,-1929],[419,-1190],[-34,-820],[-500,-888],[-1049,-624],[-234,-492],[14,-1012],[404,-778],[294,-163],[1610,324],[1584,2097],[222,-159],[162,-1063],[319,-466],[419,168],[963,1278],[597,-1047],[818,-724],[-229,-329],[-950,186],[-470,-833],[-447,-1746],[431,-1307],[511,8],[655,594],[806,-1082],[1620,-206],[594,-1316],[1033,-471],[1801,417],[1633,1762],[651,229],[609,-891],[708,120],[675,-599],[722,-138],[483,-586],[48,-1169],[-964,144],[-427,-745],[207,-1610],[574,-939],[-194,-518],[-656,-126],[-434,589],[-955,493],[-863,-833],[290,-565],[965,509],[380,-444],[-114,-483],[-1019,-657],[251,-769],[37,-1671],[363,-939],[-662,509],[-451,-32],[-1434,-2114],[84,-490],[527,-244],[-451,-789],[18,-662],[775,-393],[126,-346],[-894,-1412],[-89,-619],[299,-343],[725,366],[385,-104],[-71,-956],[-444,-826],[892,-672],[-789,-982],[479,-1333],[-493,-2341],[-736,-913],[-81,-1029],[334,-525],[894,574],[880,-458],[769,964],[543,-2199],[-129,-241],[-531,539],[-390,-88],[-246,-705],[-911,-784],[-498,-1257],[-22,-1459],[1125,-973],[296,1568],[592,831],[1481,-118],[400,-285],[-882,-1083],[-223,-1206],[-961,-1317],[-124,-604],[251,-591],[387,-219],[1436,637],[700,-1180],[-188,-303],[-1603,6],[-1510,-488],[-197,-142],[-80,-648],[427,-862],[737,534],[-263,-1183],[99,-524],[1096,-801],[402,-770],[1067,417],[386,957],[250,96],[123,-1222],[446,-1089],[-449,-1593],[117,-1207],[474,-238],[1563,1324],[365,-817],[-79,-1158],[171,-428],[507,-261],[1129,127],[743,-1695],[527,30],[263,504],[-792,1681],[-306,2571],[659,365],[1462,-1295],[526,-2394],[-717,-1213],[-838,-545],[-36,-343],[181,-360],[825,17],[425,-643],[-229,-783],[1,-925],[-691,-455],[-186,-519],[56,-382],[715,-847],[-1009,-648],[-89,-556],[519,-778],[106,-672],[-448,-497],[-695,-207],[-151,-614],[458,-546],[980,406],[205,-755],[437,-386],[1018,913],[376,-199],[21,-379],[-860,-825],[-491,-1762],[-38,-2695],[474,-1326],[520,-196],[1425,276],[336,552],[-45,404],[-907,73],[-68,663],[330,167],[1072,-439],[266,260],[165,929],[244,337],[540,-155],[590,-1146],[-226,-576],[-1078,-171],[-741,-1302],[215,-1461],[868,-44],[719,-1956],[-406,-859],[-1155,-470],[16,-780],[530,-194],[868,699],[576,-156],[157,-312],[-1005,-2069],[345,-1123],[5,-704],[-1304,-1997],[-192,-1092],[193,-313],[1152,-67],[116,-383],[-521,-639],[8,-605],[1787,-1906],[480,22],[557,1197],[580,-1894],[1259,42],[21,-1200],[712,-1255],[449,210],[262,988],[446,433],[1034,-888],[1031,213],[1008,-395],[1292,-1612],[1142,-905],[1621,213],[875,797],[571,963],[210,2311],[-379,846],[-373,277],[-1469,-607],[-648,679],[-112,2436],[-354,1505],[224,1539],[574,238],[951,-1206],[585,-247],[580,652],[1066,426],[1025,1497],[258,-307],[55,-1351],[352,-1084],[1281,-636],[632,511],[222,507],[-1120,943],[-69,434],[301,860],[353,104],[1010,-949],[940,434],[-188,732],[-988,613],[-481,668],[99,869],[569,927],[64,649],[-982,2046],[-368,1921],[182,1538],[400,386],[473,-102],[1942,-1563],[252,77],[284,644],[16,1519],[-254,1108],[-788,549],[-673,-125],[-691,1434],[906,2233],[-268,979],[454,898],[193,1303],[888,358],[-151,736],[-1668,-148],[-321,255],[109,495],[1116,-4],[379,434],[-490,1999],[48,729],[479,350],[1168,-555],[333,316],[215,946],[427,313],[783,-1292],[1389,-741],[1096,51],[677,466],[482,656],[-13,1217],[-337,387],[-1139,-121],[-355,247],[-171,684],[326,1444],[216,96],[914,-680],[1039,304],[1765,-167],[-23,575],[-1293,828],[-188,744],[215,397],[812,-208],[381,1076],[512,453],[147,425],[-47,1354],[107,528],[228,140],[304,-943],[1247,-507],[521,-1343],[-820,-751],[-696,-1392],[21,-405],[390,-371],[149,-567],[-1602,-773],[-146,-600],[129,-645],[938,-1499],[285,-99],[187,26],[385,1660],[839,-78],[88,-409],[-189,-690],[-724,-1144],[16,-1192],[1654,-1033],[211,484],[-172,1357],[273,488],[301,-22],[154,-275],[-48,-1275],[268,-309],[934,-195],[296,-370],[271,-2454],[487,-145],[283,1234],[537,178],[373,-290],[552,-1389],[836,83],[-1437,-2166],[112,-834],[268,-378],[183,139],[-48,855],[382,141],[101,-952],[830,-1215],[-255,-1326],[-919,-1012],[-81,-533],[403,-376],[567,586],[317,-9],[55,-1216],[359,-858],[1173,536],[-137,-989],[177,-503],[784,196],[6,378],[-351,567],[65,397],[559,-277],[419,351],[-90,509],[-559,280],[-117,328],[793,570],[123,1500],[958,753],[901,89],[616,530],[97,-335],[-391,-940],[120,-391],[1146,187],[288,-1016],[946,-240],[168,-856],[402,-623],[393,59],[532,815],[229,33],[-128,-1183],[539,-884],[536,-3127],[544,-643],[510,375],[568,2032],[-101,996],[-691,1298],[1196,476],[360,1124],[584,-2181],[211,-25],[280,719],[237,118],[1349,-281],[442,-490],[-44,-567],[-985,-1810],[3,-930],[238,-555],[584,-227],[704,381],[267,1919],[289,221],[632,-222],[-302,-864],[-39,-859],[1114,-2078],[546,639],[-762,1472],[24,613],[298,505],[324,-143],[53,-1077],[347,-942],[442,-419],[431,77],[423,378],[691,1445],[235,1920],[420,211],[120,-2129],[485,-1265],[1843,-1027],[474,956],[1021,755],[498,2159],[171,64],[971,-1271],[-624,333],[-449,-280],[-559,-2388],[75,-381],[282,-28],[1362,1547],[636,181],[-13,-361],[-1024,-705],[-26,-913],[307,-112],[553,473],[852,106],[165,-1393],[1381,-1346],[149,167],[-87,984],[634,668],[300,1160],[590,274],[456,-787],[-236,-2572],[187,-546],[640,-410],[229,106],[270,1257],[594,718],[34,-424],[-375,-647],[152,-444],[1384,877],[924,-826],[-374,-732],[82,-1509],[384,-923],[521,-182],[812,760],[657,190],[400,-569],[-843,-585],[-112,-589],[823,-849],[-240,-1882],[95,-500],[491,-675],[505,188],[-175,1368],[157,556],[1011,88],[307,361],[302,-465],[86,-1354],[529,-574],[1595,1285],[220,510],[969,-797],[-603,-64],[-99,-567],[432,-682],[-736,-878],[-1184,-505],[-238,-1189],[621,-1108],[471,274],[81,684],[1142,-547],[-133,-628],[484,-511],[-288,-1307],[351,-614],[769,-571],[356,44],[-283,1881],[352,42],[753,-1119],[300,1049],[1315,1053],[428,-157],[82,-1309],[536,-639],[384,-20],[816,886],[433,-1323],[394,-40],[945,516],[312,-173],[424,-745],[-475,-1627],[16,-653],[489,-647],[561,-277],[281,-929],[-881,-1216],[287,-1269],[-398,-862],[100,-822],[-1145,-1511],[236,-374],[451,350],[840,76],[24,-264],[-718,-81],[-388,-1088],[238,-508],[578,-414],[-516,-750],[79,-515],[-570,-219],[-564,-848],[-126,-961],[623,-135],[-239,-400],[280,-221],[-126,-396],[-381,-88],[-255,397],[-51,-771],[-227,-273],[207,-243],[-347,-507],[-90,181],[243,349],[-689,674],[-135,-349],[-316,47],[-269,-862],[118,-590],[676,-715],[-298,-498],[757,-1322],[-304,-319],[369,-880],[333,-517],[259,200],[193,-196],[216,-1038],[-355,-1437],[410,-1212],[-192,-569],[-384,-245],[-8,-641],[417,-22],[-298,-722],[-214,-203],[-267,740],[81,332],[-228,194],[-130,-509],[-295,267],[-516,-727],[-285,241],[57,-741],[-298,-341],[318,-555],[-505,-194],[-79,-260],[253,-447],[13,-2514],[397,-336],[-199,-638],[263,-986],[-78,-536],[-550,-869],[59,-1323],[511,-227],[342,260],[373,-535],[681,-1433],[254,-1527],[-445,-814],[-88,-594],[200,-459],[-361,-626],[340,-482],[-225,-313],[259,-279],[83,-1547],[-610,-10],[-313,688],[-619,-553],[636,-233],[-376,-783],[560,106],[-181,-530],[93,-331],[872,517],[-357,-567],[-314,-1491],[223,-227],[225,168],[-42,870],[290,296],[346,-1332],[-342,-922],[95,-285],[440,-207],[-91,598],[136,128],[280,-584],[697,-593],[-131,-1009],[-290,314],[-30,478],[-541,248],[-315,-705],[-2,-423],[510,-282],[209,-427],[-289,-476],[8,-499],[-615,-254],[689,-398],[-223,-502],[375,-375],[-335,-14],[-120,-269],[549,-1022],[-556,-374],[411,-137],[-29,-528],[421,-1213],[220,197],[-146,731],[430,-462],[27,656],[874,-657],[-339,-362],[472,-2316],[444,-656],[311,95],[570,-540],[304,-1242],[1153,-1653],[-38,-1082],[438,-369],[-134,-1001],[-532,-488],[-262,-626],[516,-721],[-392,-203],[-87,-380],[536,96],[-613,-2037],[259,-242],[49,517],[329,-200],[238,269],[223,-287],[205,-1074],[-743,-926],[199,-647],[258,287],[240,-177],[-244,-612],[546,-804],[502,609],[412,-740],[888,75],[475,-301],[1035,1062],[295,-836],[299,-255],[282,244],[8,600],[1740,300],[82,-917],[638,-481],[360,-1364],[607,154],[160,-2341],[593,-879],[1396,166],[1097,-312],[831,406],[385,781],[1487,440],[495,-1291],[707,-312],[742,546],[813,119],[573,519],[149,407],[-354,785],[59,279],[724,99],[656,569],[441,40],[820,-849],[1024,-1428],[103,-1108],[-565,-1226],[38,-759],[205,-303],[-311,-116],[-258,-523],[-941,-174],[-32,-366],[280,-433],[-332,-640],[677,-521],[35,-860],[438,-1121],[-343,-1742],[78,-470],[237,-231],[152,124],[-7,593],[368,-386],[561,470],[-302,-799],[182,-711],[811,116],[116,-299],[-339,-596],[-267,3],[-98,-425],[648,-253],[64,-252],[-465,-577],[8,-352],[-505,-237],[-276,-1529],[295,-462],[-586,-78],[96,-924],[-421,-39],[-335,401],[-233,-217],[399,-622],[-567,-560],[-114,-1025],[-399,-800],[99,-807],[-267,-465],[304,-547],[-8,-889],[-218,-1005],[529,-1236],[390,189],[256,1023],[257,-660],[553,206],[498,-1213],[550,-222],[103,-618],[656,-20],[243,-320],[-99,-597],[688,-1339],[-82,-632],[311,65],[293,-291],[143,-664],[428,455],[269,-236],[60,-619],[-362,-940],[633,-984],[155,-1087],[475,-43],[-60,927],[238,414],[401,-735],[344,251],[180,-602],[-583,-1117],[206,-607],[328,-238],[383,126],[266,-921],[254,-34],[554,446],[180,637],[546,106],[-164,665],[358,106],[168,1137],[1214,-142],[-255,685],[111,588],[-292,284],[277,236],[93,970],[994,142],[281,-541],[405,-116],[19,978],[158,164],[502,-600],[62,-1159],[394,-115],[32,-1165],[427,24],[593,1177],[176,-532],[-293,-1268],[228,-461],[245,85],[397,969],[283,-143],[12,-376],[-285,-380],[-5,-760],[650,-71],[1301,527],[407,-65],[179,-689],[326,236],[515,-142],[519,609],[67,768],[107,-424],[569,159],[63,-894],[626,-397],[565,484],[231,-110],[-166,-1546],[658,-235],[-206,-432],[180,-845],[-781,-360],[-305,-993],[157,-398],[637,315],[-345,-1392],[279,-85],[391,330],[341,-417],[523,-21],[1491,307],[392,-1328],[359,-62],[363,-729],[402,-195],[533,227],[1046,-823],[117,-398],[-670,-740],[-1,-546],[1012,62],[-38,-657],[580,-1112],[1437,-503],[671,-1078],[1043,280],[74,-482],[-250,-857],[729,-1115],[-241,-536],[59,-513],[259,-24],[305,554],[647,-868],[6,576],[181,178],[577,-1611],[443,-216],[768,383],[1319,-1922],[627,337],[299,-126],[-428,-211],[256,-908],[287,277],[398,-159],[-16,861],[560,-414],[-83,-406],[193,-314],[421,218],[222,-384],[648,-4],[571,455],[68,-325],[-378,-244],[123,-845],[277,144],[100,572],[573,240],[435,-103],[332,262],[469,-579],[657,-125],[224,207],[0,853],[653,-753],[159,114],[-86,351],[283,78],[-161,-1004],[431,-831],[-369,-236],[-216,409],[-286,33],[-248,-1056],[942,-1166],[-179,-591],[243,-321],[349,-1509],[253,-277],[1367,-264],[351,244],[477,-357],[-121,-1208],[398,-612],[-318,-753],[-751,-714],[31,-328],[347,-343],[412,89],[705,-933],[730,-482],[294,194],[-320,818],[365,771],[273,-118],[413,335],[1167,-650],[270,479],[249,-413],[569,1297],[-50,-807],[301,-457],[192,79],[88,543],[234,2],[197,-719],[-120,-1322],[769,-381],[1134,-1049],[-185,-1202],[421,-173],[270,-493],[370,369],[81,-435],[363,-92],[419,-637],[689,0],[688,-619],[475,90],[204,-341],[267,6],[162,-531],[331,150],[131,-889],[-317,-516],[720,-58],[140,-112],[-243,-249],[89,-368],[422,-5],[72,-614],[-349,-405],[541,-1048],[-257,-745],[139,-578],[562,-253],[-260,-947],[978,-1104],[155,-565],[409,204],[5,-1400],[721,5],[300,-1135],[248,-123],[499,19],[75,314],[-170,197],[672,353],[-339,-649],[442,-22],[384,-952],[-335,197],[-282,-635],[330,-798],[446,-137],[-17,-610],[477,-1280],[-28,-685],[1050,-62],[290,-523],[262,417],[389,-207],[720,587],[-6,-472],[355,-198],[-386,-256],[356,-295],[-145,-739],[353,-37],[400,-982],[468,-124],[379,406],[123,-651],[303,383],[185,-315],[577,144],[183,-1056],[491,-51],[231,-299],[-603,-453],[387,-500],[-439,-438],[24,-1028],[1075,-731],[546,-1002],[1950,-1078],[-63,-1615],[211,-229],[418,128],[-180,-513],[346,-522],[-89,-596],[552,-659],[346,-816],[-89,-578],[362,-465],[666,-501],[427,1473],[450,414],[-63,671],[495,158],[359,576],[427,-309],[740,282],[579,-1138],[-750,-1492],[84,-708],[196,-31],[106,475],[221,56],[381,-853],[370,-200],[349,1339],[200,168],[239,-166],[-119,-812],[209,-485],[198,95],[146,847],[1116,-99],[143,-211],[-129,-388],[-701,-413],[103,-1073],[-416,-256],[-19,-349],[646,-395],[342,597],[385,105],[596,-1044],[323,1047],[246,207],[-100,-1168],[258,-309],[447,799],[237,52],[45,-844],[-298,-605],[129,-261],[584,53],[-190,-1805],[328,-408],[641,458],[-549,-708],[722,-700],[54,-721],[324,0],[545,1043],[471,-65],[271,-427],[0,-504],[-430,-546],[303,-718],[-370,-658],[-18,-541],[-610,-562],[125,-232],[1068,262],[2,-627],[-487,311],[-469,-95],[-302,-533],[-148,-956],[199,-625],[233,-120],[347,277],[-96,916],[163,373],[311,-759],[693,383],[292,-180],[-68,-434],[-501,35],[-462,-712],[15,-533],[492,-247],[-598,-66],[-201,-434],[324,-519],[370,402],[332,-23],[573,-666],[-185,-313],[-141,658],[-218,98],[-28,-629],[-584,352],[-345,-389],[226,-663],[1021,-234],[-414,-305],[434,-591],[-340,-1132],[613,-514],[181,806],[192,69],[-159,-1531],[617,-422],[310,245],[154,-631],[232,430],[710,382],[473,-105],[-78,-293],[-609,39],[323,-1034],[-685,-453],[193,-547],[596,176],[210,-241],[-764,-577],[20,-382],[490,192],[-557,-1063],[157,-304],[718,215],[-514,-522],[592,-528],[148,-1130],[514,-155],[-392,-344],[280,-331],[-59,-255],[-495,255],[-396,-405],[-76,-1005],[743,-170],[478,910],[605,-2],[64,-418],[-438,-62],[-451,-587],[-138,-570],[141,-348],[424,-71],[-49,886],[341,48],[-54,-1086],[423,-362],[-28,-1012],[704,-270],[312,-912],[409,41],[-24,-1258],[364,-342],[353,347],[153,-848],[700,-313],[477,273],[107,-594],[222,-151],[142,999],[524,158],[104,-360],[-401,-496],[-3,-492],[709,207],[221,-234],[-520,-494],[-95,-511],[199,-179],[363,201],[356,-400],[164,421],[330,83],[164,-408],[-357,-782],[231,-359],[362,736],[506,-5],[33,-327],[-611,-106],[-60,-356],[191,-256],[-258,-712],[239,-268],[583,555],[-139,-1325],[229,-328],[236,92],[265,-653],[304,-76],[341,734],[176,1371],[223,-175],[-112,-990],[-342,-681],[131,-502],[711,-164],[579,1095],[340,-9],[28,-256],[-505,-526],[-5,-843],[352,-93],[433,1007],[421,-557],[-542,-1285],[17,-1378],[-505,-548],[375,-1116],[440,-302],[795,402],[315,-93],[1104,-1327],[860,126],[32,-868],[656,412],[443,-2148],[375,203],[18,984],[243,30],[204,-580],[-117,-1195],[248,-244],[454,224],[70,-1348],[223,-103],[687,693],[789,-1189],[-70,-346],[-502,-187],[236,-597],[-16,-1157],[615,130],[162,-873],[197,-100],[778,1154],[441,-885],[401,-110],[392,596],[-420,294],[-37,306],[1043,923],[-12,-791],[392,-656],[-649,-718],[439,-392],[61,-399],[-428,-805],[-584,-2427],[341,-538],[484,-50],[-576,-991],[776,-1038],[477,154],[-110,1038],[803,1128],[-348,362],[-594,25],[-158,669],[863,-432],[157,600],[-265,1337],[1308,854],[490,-1535],[232,-206],[330,63],[56,1010],[699,-442],[-109,-1895],[215,-767],[-149,-1270],[240,-338],[339,960],[316,-1055],[429,-133],[346,1532],[232,-578],[463,701],[490,-253],[13,1312],[1116,230],[103,-304],[-188,-680],[499,-667],[-101,-634],[-577,-432],[-36,-1100],[-402,-565],[266,-1215],[-97,-940],[483,-141],[514,903],[513,-551],[152,1310],[613,-972],[297,-123],[548,345],[343,938],[433,74],[92,-908],[592,250],[93,-255],[-298,-763],[226,-835],[-694,-342],[63,-1069],[-242,-1207],[406,-419],[478,438],[-40,-669],[220,-402],[838,270],[54,219],[-430,662],[1032,845],[322,-275],[146,-1422],[383,-1039],[662,-116],[295,688],[806,-160],[475,726],[386,-54],[-84,-593],[275,-327],[-19,-877],[401,-850],[1088,417],[138,524],[-316,514],[308,201],[430,-268],[524,1660],[212,165],[211,-362],[-472,-319],[42,-607],[519,-3],[309,-608],[425,-115],[609,1876],[-136,241],[-555,-145],[81,632],[-163,519],[783,-610],[320,145],[-715,1436],[812,-494],[299,-572],[411,1009],[733,-13],[569,825],[729,-397],[136,929],[-372,258],[457,416],[-250,941],[27,831],[337,-5],[177,415],[327,-193],[152,257],[-408,1499],[265,324],[335,-534],[431,80],[-288,794],[406,825],[350,-291],[-352,-346],[217,-614],[211,-36],[-85,507],[326,127],[84,550],[-94,1273],[1282,283],[1557,-1157],[991,243],[402,-241],[251,532],[518,-612],[551,197],[2120,-778],[151,-394],[414,-173],[56,-571],[-194,-553],[1312,-1370],[387,86],[269,629],[1222,-9],[962,602],[244,470],[645,266],[565,1617],[-118,1436],[-430,1589],[-1132,624],[-449,573],[-254,889],[115,1460],[-470,580],[-54,1680],[-166,92],[-296,-395],[-343,186],[-46,481],[-961,800],[185,809],[-156,712],[-1058,921],[-724,1727],[-675,353],[254,2721],[567,1199],[629,439],[538,-114],[375,671],[1122,154],[261,291],[9,614],[-385,1030],[142,1166],[-533,865],[115,1318],[-287,670],[445,2020],[-14,886],[651,989],[360,-1],[337,1138],[225,84],[32,792],[-279,1002],[884,1460],[248,868],[-581,996],[296,999],[-381,463],[82,626],[-167,453],[302,412],[-12,453],[520,52],[406,463],[316,-299],[332,466],[715,-283],[-192,804],[173,-305],[234,97],[-123,687],[826,-497],[115,1078],[691,-1335],[690,-275],[644,197],[418,605],[201,1233],[591,-470],[697,503],[290,1658],[241,-633],[969,1541],[213,-80],[-249,-562],[164,-336],[391,198],[-60,490],[800,-412],[1194,787],[255,1255],[262,-983],[166,245],[-62,608],[788,-118],[607,495],[378,-475],[-470,-625],[306,-928],[833,1963],[286,-520],[219,-13],[1121,1545],[157,-109],[-179,-655],[160,-296],[775,1011],[70,-1404],[369,-322],[129,284],[-142,1244],[169,215],[105,-1187],[213,-251],[386,150],[34,-900],[255,-430],[232,223],[95,884],[875,-958],[823,637],[475,-169],[-185,-1358],[-494,-585],[45,-368],[1623,97],[407,739],[1027,-639],[179,1308],[797,190],[397,-651],[490,548],[1062,-613],[544,410],[326,-76],[212,-270],[-134,-730],[761,-198],[175,550],[-474,558],[329,184],[219,690],[456,-224],[680,708],[183,-531],[396,-240],[631,647],[752,-907],[861,-79],[-119,-775],[503,-541],[-680,-1118],[34,-504],[407,142],[560,-490],[387,1258],[237,140],[503,-768],[158,-806],[706,522],[-219,-798],[107,-325],[959,511],[9,-802],[422,-501],[569,403],[818,-383],[349,923],[669,140],[691,825],[335,-566],[639,-253],[916,-1440],[952,372],[258,-1030],[334,-246],[379,319],[204,814],[974,552],[879,-84],[289,727],[797,941],[1315,96],[645,-239],[644,438],[146,425],[-225,576],[132,666],[-153,660],[168,212],[474,-441],[551,90],[22,338],[-474,248],[-308,560],[450,57],[243,556],[620,-146],[409,-1065],[799,911],[296,-964],[308,-182],[703,1011],[-20,724],[300,1015],[303,2],[376,-884],[637,-170],[209,339],[-42,621],[562,719],[-141,878],[410,445],[68,404],[267,-609],[378,298],[473,-509],[604,181],[480,-490],[257,211],[138,961],[529,-257],[249,172],[466,-512],[542,36],[178,-760],[933,-542],[407,322],[-207,224],[23,384],[497,446],[-150,858],[585,388],[369,598],[-169,-744],[152,-454],[738,-139],[-594,-1636],[247,-857],[405,32],[480,1690],[832,-341],[953,234],[12,-522],[-653,-523],[315,-739],[-285,-598],[74,-472],[345,-18],[344,477],[292,-124],[27,-426],[-375,-566],[35,-494],[498,65],[276,-633],[407,-128],[766,-2020],[1294,-159],[-85,-1243],[-479,-429],[-150,-678],[211,-255],[601,314],[434,-100],[-284,-1592],[629,-1024],[477,105],[-420,814],[11,462],[876,-474],[704,1049],[1149,409],[219,-969],[-1018,-263],[-476,-663],[251,-569],[654,473],[568,-452],[-802,-955],[-65,-682],[344,-125],[430,897],[252,-42],[241,-1538],[559,-239],[327,-952],[374,-98],[464,320],[433,-1274],[695,-193],[453,-2265],[779,-92],[63,-1293],[1102,533],[-28,-505],[-588,-722],[40,-524],[496,-55],[411,-708],[423,-149],[202,301],[-158,668],[118,322],[868,645],[338,-75],[564,-912],[-125,-208],[-492,394],[-216,-203],[209,-798],[-163,-803],[128,-467],[330,-90],[709,949],[857,-1031],[382,117],[268,451],[668,-1518],[18,-781],[-598,434],[-420,-182],[-179,-533],[121,-538],[520,-179],[367,-497],[585,581],[456,-42],[295,-679],[-539,-237],[-137,-472],[341,-359],[1169,235],[-90,-615],[289,-371],[894,558],[413,630],[562,-649],[143,-864],[206,-148],[245,696],[549,77],[549,472],[352,-685],[-486,-1694],[837,110],[385,-629],[523,473],[79,-1935],[1612,-182],[-127,-999],[503,-533],[404,131],[185,544],[-577,518],[-14,273],[759,346],[709,-462],[407,333],[55,537],[-477,171],[344,748],[404,-299],[513,27],[29,-1017],[438,-218],[510,59],[440,394],[-4,452],[-456,680],[123,304],[302,96],[613,-704],[466,256],[146,718],[-1265,604],[638,483],[-118,861],[160,300],[727,-118],[1106,977],[643,26],[464,-468],[524,465],[524,-379],[492,786],[917,146],[634,-241],[212,-428],[-169,-472],[-892,-604],[-68,-564],[310,-850],[225,-29],[124,1109],[858,-1217],[119,970],[1213,-5],[270,-536],[-362,-814],[334,-462],[734,243],[124,593],[368,246],[778,1354],[848,-43],[55,-621],[-764,-24],[-350,-382],[58,-515],[438,-510],[270,-858],[-110,-432],[-454,-54],[-27,-901],[244,-245],[420,312],[87,-1744],[1365,-826],[-708,-1427],[-11,-543],[427,-463],[620,682],[392,36],[240,-535],[-458,-924],[302,-491],[247,120],[111,789],[240,328],[795,-655],[535,-55],[1372,919],[450,906],[387,-100],[418,-553],[335,-2],[470,1229],[1232,1136],[228,-88],[613,-1281],[495,405],[542,-667],[318,200],[118,1286],[445,-730],[104,-2403],[222,-552],[1340,-214],[223,581],[-206,545],[224,36],[232,-1649],[1454,-130],[383,-466],[370,187],[122,579],[-783,800],[-3,476],[213,234],[1032,-691],[521,993],[766,213],[-6,-430],[-526,-578],[11,-451],[1225,-705],[67,761],[307,-201],[263,157],[86,814],[393,182],[271,1045],[392,229],[654,-1237],[-81,-207],[-883,-39],[124,-888],[-204,-868],[315,-97],[1307,1168],[57,-1288],[921,-910],[233,738],[381,-537],[325,-26],[1105,957],[569,-1733],[-197,-1021],[438,63],[183,-226],[-416,-624],[851,-857],[430,343],[1042,2480],[540,-199],[-483,36],[-186,-315],[223,-655],[-150,-710],[666,-418],[61,802],[697,1245],[486,-905],[-598,-424],[65,-660],[386,568],[648,-115],[-3,913],[191,360],[645,193],[8,-714],[200,-257],[492,1112],[964,-114],[113,288],[-285,727],[824,-197],[225,274],[-113,296],[-485,122],[-100,506],[352,221],[387,-461],[200,832],[457,623],[123,-545],[377,-308],[-75,-968],[676,97],[63,-788],[575,-303],[576,805],[-419,501],[268,536],[-184,898],[873,269],[-474,-478],[20,-450],[249,-128],[575,438],[543,-1143],[-952,-539],[-41,-624],[371,-286],[682,588],[159,-942],[-775,-182],[27,-582],[548,-479],[-800,-354],[-118,-717],[203,-105],[347,518],[379,76],[57,-1159],[787,-561],[348,588],[-191,207],[-396,-173],[28,953],[428,601],[80,-1078],[352,-217],[146,601],[288,176],[468,-1215],[239,168],[81,1205],[494,-801],[368,237],[602,-341],[243,1378],[-619,219],[-73,257],[705,1375],[300,-239],[533,244],[762,-543],[130,-1628],[310,-750],[248,-210],[248,414],[374,-19],[1234,-1989],[498,844],[709,339],[-368,1231],[700,-241],[554,767],[-90,450],[-793,1001],[-107,975],[219,1966],[769,1057],[399,127],[669,-286],[218,202],[99,447],[-221,1310],[547,1800],[1430,928],[-383,501],[317,430],[-44,755],[239,-566],[303,-65],[119,308],[-169,668],[411,-165],[241,248],[-388,1390],[486,380],[1232,-609],[229,-477],[19,-933],[434,-372],[293,616],[191,1551],[768,536],[192,-832],[669,234],[118,-303],[-136,-710],[862,-1084],[-448,-746],[164,-806],[218,48],[69,594],[352,-550],[437,287],[258,-543],[862,-41],[238,-1017],[1152,-59],[484,506],[-217,978],[-461,-566],[-496,-18],[-114,232],[909,1114],[-483,1153],[141,1116],[421,698],[-40,1014],[173,76],[1040,-1148],[856,690],[251,-683],[-241,-443],[-18,-605],[715,-99],[708,-1111],[-16,-1635],[610,400],[42,-458],[1266,-1517],[708,632],[-82,342],[-518,-44],[-31,406],[528,291],[-344,814],[282,254],[498,-94],[184,659],[-185,847],[443,673],[325,-582],[-368,-377],[-20,-820],[528,342],[236,-777],[805,117],[400,-799],[426,-225],[338,451],[-354,777],[36,487],[1220,139],[476,669],[190,-980],[272,508],[426,-319],[563,394],[688,-595],[-881,-799],[599,-240],[-5,-204],[-922,-772],[56,-449],[534,-457],[129,-1046],[620,524],[272,-341],[-205,-531],[117,-242],[498,607],[241,-683],[557,72],[-237,-764],[595,-391],[434,-770],[250,168],[-55,874],[281,-660],[688,-37],[-172,-639],[96,-531],[282,-216],[649,82],[-76,-608],[-550,102],[-288,-251],[300,-640],[557,19],[-313,-583],[84,-310],[640,41],[319,-597],[619,235],[-509,1327],[32,401],[269,228],[76,-994],[259,-568],[324,756],[656,-81],[221,-620],[-757,-582],[290,-289],[497,143],[-278,-971],[256,-827],[394,-369],[417,0],[602,1209],[-109,313],[-492,117],[2,318],[768,-153],[215,-442],[464,-38],[499,-463],[322,391],[-200,346],[71,554],[402,45],[418,526],[685,-412],[1020,944],[134,-553],[-408,-205],[-87,-367],[166,-313],[274,37],[309,-1109],[-427,-476],[-50,-1169],[484,-552],[515,579],[530,-529],[516,1076],[405,30],[-255,-1634],[-231,-141],[-148,-909],[4,-683],[289,-334],[428,114],[238,436],[-338,571],[394,-279],[196,133],[-184,852],[649,29],[84,-241],[-384,-835],[356,-440],[209,-45],[272,788],[123,-642],[335,183],[488,-238],[531,-1015],[333,249],[-237,542],[720,212],[117,-247],[-208,-723],[523,150],[495,-300],[268,512],[-581,241],[134,520],[220,259],[469,-224],[350,612],[255,-1084],[943,-636],[-175,-731],[579,11],[-17,-262],[-394,-227],[181,-775],[727,887],[266,-119],[63,-410],[-249,-484],[440,-482],[-702,-1363],[39,-440],[432,-377],[479,526],[481,24],[287,752],[1107,-864],[260,15],[275,506],[627,-206],[445,641],[-128,439],[-350,253],[205,700],[280,116],[-85,-702],[464,-158],[155,251],[-137,778],[903,-148],[844,-2674],[443,138],[613,-251],[992,511],[233,468],[642,-368],[4,-218],[-442,-166],[348,-913],[-305,-1223],[590,-292],[99,-615],[315,-375],[-62,-325],[-699,-151],[247,-808],[758,-274],[386,922],[663,-75],[88,816],[-375,624],[592,711],[339,-349],[-264,-685],[78,-641],[641,-1087],[1081,-871],[976,1005],[-445,1494],[394,633],[-134,1214],[867,307],[-401,603],[455,816],[-345,1040],[88,213],[473,-774],[360,298],[256,-605],[660,298],[437,-590],[89,-1095],[440,-779],[325,188],[690,1497],[984,-218],[473,649],[429,36],[94,-341],[-210,-699],[604,231],[496,-363],[-361,-986],[233,-968],[-187,-928],[203,-310],[232,75],[185,1312],[412,-145],[1260,-2963],[886,1091],[25,1021],[722,92],[203,-810],[253,27],[303,1468],[-616,406],[246,1517],[774,158],[-172,775],[580,579],[-389,1632],[255,1523],[237,105],[105,-610],[213,29],[-18,999],[237,579],[315,-589],[321,-114],[532,1443],[679,143],[-506,169],[-39,229],[506,261],[348,-142],[242,767],[290,-717],[269,44],[15,566],[-416,570],[-27,573],[237,22],[70,-620],[294,34],[244,810],[-313,770],[377,-66],[44,586],[392,590],[-619,272],[-664,733],[160,266],[383,-403],[228,418],[26,385],[-299,451],[189,551],[-74,616],[258,26],[115,-828],[366,178],[225,502],[-100,907],[-759,-127],[-60,419],[788,-95],[449,-350],[149,577],[-462,320],[46,595],[639,-654],[411,111],[-73,754],[-410,542],[528,466],[452,-353],[288,1128],[177,-40],[-203,-505],[272,-530],[-299,-704],[474,-340],[-224,-559],[365,-642],[-115,-1228],[378,-379],[60,-846],[624,-802],[495,-25],[362,-501],[-207,-884],[171,-371],[255,169],[293,949],[663,-770],[657,912],[361,86],[1815,-1277],[769,-166],[-17,-785],[638,-500],[243,199],[1194,-1206],[958,664],[1097,-349],[800,1183],[758,-180],[389,933],[1043,-598],[1670,429],[1456,-759],[579,743],[247,-784],[364,143],[644,-380],[134,-381],[254,333],[164,-518],[368,44],[-280,-504],[502,-737],[-13,-644],[434,-727],[272,-42],[274,457],[-124,484],[-368,352],[211,323],[572,-405],[-21,-1003],[223,-172],[196,543],[855,768],[320,1387],[1273,934],[1003,2014],[-113,580],[-619,811],[-60,1115],[360,1125],[706,602],[28,1060],[-262,692],[556,1831],[1409,1723],[439,7],[-62,508],[-251,-193],[501,774],[-292,-230],[1083,1065],[962,-228],[-98,322],[181,317],[-461,753],[-79,554],[531,232],[127,345],[-165,277],[-613,6],[610,765],[-256,1116],[167,314],[395,-279],[1024,1079],[419,-915],[751,241],[292,-322],[463,-35],[1004,-803],[462,-9],[500,-564],[379,64],[213,-571],[626,-429],[606,585],[-192,1193],[1071,1441],[1512,-7],[-151,141],[276,146],[302,-1262],[766,96],[348,941],[279,59],[498,-598],[252,-750],[475,-394],[247,-1054],[490,-819],[491,676],[1031,-858],[23,-350],[-509,-491],[-655,-1627],[553,-735],[99,-1275],[812,-108],[1012,-1358],[917,-582],[321,-1203],[351,-167],[514,308],[1331,2065],[1231,634],[491,749],[-289,1279],[-1775,-112],[-355,864],[-370,317],[-1246,-1185],[-8,784],[466,687],[-366,428],[70,819],[1269,-812],[758,757],[-359,-888],[967,19],[-34,-624],[258,-501],[428,182],[-1,830],[236,371],[1480,-355],[393,-509],[-105,-772],[514,-511],[2117,2227],[1914,1057],[515,2395],[484,715],[843,377],[1987,294],[274,-398],[582,30],[755,1137],[2397,1932],[320,-288],[716,-1646],[-99,-839],[200,-504],[1099,-386],[1411,-1733],[907,-191],[824,523],[727,-780],[1088,-11],[20,-232],[-606,-211],[-131,-579],[174,-237],[510,89],[431,-713],[381,523],[875,-258],[918,659],[1077,-237],[560,-433],[254,-825],[255,-46],[-284,-807],[474,-724],[454,199],[395,-328],[124,222],[835,-3],[743,-980],[84,817],[258,-511],[814,228],[58,-320],[-437,-175],[236,-1079],[1173,494],[198,-988],[489,507],[414,-759],[332,500],[995,-1078],[88,-1006],[363,188],[-119,490],[397,118],[981,-422],[186,838],[-386,484],[678,100],[511,-662],[657,140],[184,-532],[-605,-679],[330,-268],[290,241],[267,-613],[-284,-836],[344,-403],[-477,-1329],[376,-372],[-632,-259],[508,-331],[-395,-682],[421,-345],[282,161],[691,-307],[832,-1183],[-60,-217],[-806,131],[94,-351],[392,-48],[-394,-275],[-68,-636],[705,-337],[436,-657],[371,290],[8,722],[613,-284],[276,-525],[401,87],[64,489],[348,-71],[663,579],[100,-246],[-357,-101],[-36,-240],[955,-548],[194,188],[-67,475],[563,65],[342,884],[-114,-1508],[685,-21],[263,1192],[-4,-868],[274,348],[434,-87],[-387,-40],[-74,-235],[352,-309],[-73,-1012],[237,-113],[60,595],[233,-656],[98,745],[410,106],[229,462],[198,-85],[-336,-874],[52,-1090],[229,-407],[-301,-273],[-36,-554],[-163,319],[-33,-321],[-342,-258],[364,-13],[-14,-279],[-434,-150],[-120,-402],[6,-379],[276,91],[-195,-539],[231,-358],[-416,-164],[13,-591],[-180,-216],[-520,339],[-96,-418],[296,-591],[-438,-651],[61,-389],[463,-464],[463,164],[-252,-274],[59,-309],[709,70],[-295,-564],[188,-315],[60,448],[235,-152],[-163,-896],[577,331],[-375,-770],[202,-398],[-397,-61],[177,-733],[-511,-471],[515,106],[65,-364],[-335,123],[-111,-561],[660,-205],[-564,-132],[246,-412],[-523,-490],[756,-679],[315,145],[-105,-850],[425,-569],[-131,-768],[364,-1007],[408,36],[-85,502],[199,369],[73,-669],[374,371],[494,-347],[204,-467],[607,331],[269,-234],[76,-586],[286,304],[-297,480],[452,-539],[539,407],[-411,-1524],[194,-335],[-65,-408],[-410,586],[-280,-1133],[-673,369],[470,-1598],[445,93],[404,-335],[-122,-343],[-363,-19],[-142,-737],[-436,49],[-167,-467],[300,-505],[-26,-469],[-307,381],[-176,-493],[25,-963],[392,-808],[-135,-434],[537,-14],[327,-1050],[313,131],[150,-981],[299,3],[-81,-825],[259,-947],[-398,-481],[199,-697],[-286,-370],[114,-430],[-440,246],[-362,-1304],[-285,180],[-154,-251],[81,-546],[530,-614],[46,-722],[320,-256],[-101,-690],[150,-579],[-643,-526],[-78,-702],[617,-703],[183,-457],[-179,-464],[470,-727],[17,-560],[-666,-722],[264,-1327],[-251,-500],[526,-988],[-292,-27],[-144,-320],[241,-505],[465,133],[-199,-1049],[187,-592],[-530,63],[459,-1271],[506,-110],[-303,-188],[149,-764],[-202,-322],[-296,165],[-338,-1034],[387,-771],[529,243],[354,-373],[66,-620],[359,-110],[507,456],[453,-653],[-99,-447],[-755,-425],[34,-823],[451,-1075],[-331,-373],[126,-971],[-342,-153],[-315,-805],[41,-541],[-325,-493],[294,-257],[114,-509],[-474,345],[-285,-644],[25,-614],[-500,-1137],[50,-284],[711,382],[141,-251],[-292,-132],[-341,-763],[386,-601],[-615,-726],[794,-741],[-787,-1025],[-75,-490],[558,-371],[418,292],[73,-1076],[292,-511],[942,-377],[32,-1140],[-424,-382],[589,-1323],[1811,-474],[445,-793],[-103,-592],[242,-231],[165,-856],[425,-233],[108,-587],[57,-489],[-220,-473],[153,-403],[-15,-1890],[1568,-1008],[1062,-25],[734,-750],[381,-35],[367,-657],[-248,-1223],[279,-1581],[-649,-512],[778,-467],[14,-266],[-954,-1892],[802,-624],[387,-755],[182,-2044],[1090,-2364],[-328,-1411],[-348,-308],[36,-912],[-597,-494],[66,-829],[-546,-912],[1001,-2393],[5,-751],[259,-99],[194,361],[1051,436],[391,960],[155,-538],[766,-871],[-240,-1154],[660,-237],[-207,-1340],[489,299],[88,737],[388,138],[211,-858],[534,118],[340,-486],[1214,661],[22,-1597],[736,-144],[538,-477],[191,321],[272,-94],[-268,-355],[134,-746],[221,-216],[425,149],[90,-452],[682,-564],[-540,-496],[351,-712],[-497,-367],[-178,-772],[-183,-113],[14,457],[-152,62],[-455,-700],[808,-143],[458,418],[-80,-865],[319,-315],[-233,-650],[481,264],[107,-185],[124,-1197],[-462,-526],[-156,-1157],[-359,289],[167,-827],[318,-429],[-450,-69],[-274,-995],[163,-1067],[-313,-118],[-202,-495],[-377,-3],[82,-533],[-380,-599],[340,-526],[-658,-479],[-151,-578],[345,-501],[-8,-359],[-1001,-531],[-77,-777],[-613,-804],[114,-425],[285,-147],[-208,-358],[368,-30],[-465,-822],[-312,49],[-132,-983],[-859,-1032],[-319,-1977],[-235,-255],[-272,546],[-343,-46],[-84,-772],[-806,-909],[-605,96],[-1110,-2409],[-531,80],[-400,-557],[665,-724],[-214,-973],[-321,-284],[86,-1140],[-448,88],[-15,-453],[-888,-689],[-29,-607],[651,6],[-440,-534],[-52,-484],[-619,-186],[-355,-478],[-229,-1129],[-675,-1262],[92,-821],[-202,-619],[-231,-176],[-406,331],[242,-849],[164,294],[238,-229],[102,269],[647,-1630],[-278,-98],[95,-403],[445,120],[160,-487],[144,103],[500,-743],[257,953],[427,-56],[51,962],[328,154],[595,-276],[-120,377],[281,-126],[25,242],[1069,-161],[291,227],[-41,433],[342,-221],[546,594],[209,-605],[580,147],[13,-464],[476,443],[881,-820],[385,81],[319,-1655],[467,149],[917,1520],[197601,-136898],[-1277,-1254],[-269,-797],[237,-421],[-749,538],[-2397,-1175],[-1249,-983],[-981,-1147],[-1034,-2043],[-3616,504],[-1738,-325],[-1494,-721],[-1466,287],[-1326,-124],[-2683,-952],[-2250,-1560],[-1581,-1752],[491,-1341],[-1819,-1010],[-1140,-1150],[-363,-885],[46,-415],[-484,-652],[75,-775],[-513,-368],[-546,-1070],[53,-262],[-279,-207],[7,-473],[-255,-50],[1,-744],[-181,-195],[274,-534],[-704,-1684],[-705,-2980],[-453,-294],[-24,-376],[-247,-48],[-285,-806],[-323,-249],[50,-425],[-498,-289],[-201,-292],[101,-363],[-798,-843],[-37,-1229],[-463,-678],[122,-467],[-253,-1047],[70,-619],[-93,183],[-302,-430],[-779,-393],[-2172,-486],[-3392,-1874],[-1179,-1228],[-173,-632],[-397,-351],[-377,-1814],[80,-770],[-256,-218],[-873,782],[-2405,-396],[-2347,-985],[-219,-626],[-116,255],[-85,-553],[-434,268],[-1324,-813],[-919,-1146],[267,-363],[-356,-770],[-436,329],[-646,-228],[-1079,-928],[-47,-524],[217,-56],[-159,-40],[-164,-2249],[-254,-87],[-160,-749],[-205,77],[-143,-430],[-414,-205],[-1249,959],[-1310,227],[-2530,-532],[-894,-1028],[-1003,158],[-132,488],[-1121,160],[-577,-119],[-315,-491],[-919,183],[-952,-503],[-2156,579],[-2881,-365],[-1804,-583],[-526,-425],[-1156,-132],[-1831,-897],[-871,-1139],[36,-1066],[-217,-89],[-327,457],[-501,-1314],[-667,402],[32,402],[-486,224],[378,1092],[-319,672],[-881,911],[-1251,797],[-3688,577],[-1560,-80],[-732,-347],[-680,165],[-273,-248],[-1527,420],[-5290,126],[-11633,-709],[-10155,-83],[-2844,-607],[-1336,-497],[-502,-548],[-1532,756],[-1059,201],[-2086,92],[-3689,-365],[-4467,-1141],[-2139,-910],[-728,-673],[-106,-585],[173,-519],[-973,-273],[-740,-1504],[-233,375],[142,221],[-86,693],[-1016,836],[-1384,476],[-1501,102],[-4555,-437],[-2595,-872],[-1719,867],[-2123,268],[-4432,-213],[-425,285],[-329,-179],[-2469,273],[-8293,-46],[-8938,-414],[-8652,-1375],[-6609,-1859],[-5825,-2207],[-6362,-3144],[-5607,-3285],[-809,-362],[-1160,2],[-5366,-2538],[-2795,-1837],[-2922,-814],[-11212,-6826],[-6956,-5003],[-6887,-6089],[-9319,-9660],[-6594,-7555],[-11802,-14628],[-6951,-9883],[-38427,-52564],[-8554,-12714],[-6453,-10632],[-5417,-7458],[-133,20],[5,874],[324,558],[249,1345],[379,371],[718,-54],[333,265],[353,636],[-140,1137],[601,-59],[661,592],[1351,2119],[-498,-217],[-420,-816],[-1217,-1234],[-519,-44],[-209,-329],[88,-630],[-202,-205],[-1009,106],[-218,331],[-296,-331],[270,-300],[-106,-227],[-253,565],[356,951],[-533,375],[-1101,-832],[-192,354],[-2545,104],[-438,330],[375,-745],[-374,-88],[-219,-1395],[-952,366],[-251,372],[-310,-103],[-81,559],[-257,90],[-1085,-399],[-119,-394],[-651,-236],[-145,-446],[-810,-654],[-214,104],[213,-242],[-172,-650],[108,-739],[-342,220],[143,204],[-206,666],[-492,-274],[-246,309],[-491,7],[609,-556],[527,53],[-932,-1391],[391,-1564],[-454,-546],[-8,-524],[-694,-19],[-218,281],[-19,-219],[-923,-346],[-295,-438],[360,46],[-197,-676],[735,-38],[240,-74],[-27,-58],[-1060,1],[-1000,629],[-495,-314],[-465,-1650],[-335,-301],[-383,396],[-405,-281],[329,-547],[-1195,854],[-808,1418],[-340,-43],[148,989],[-1051,93],[-45,-1108],[431,-1426],[-476,-437],[-94,-739],[-421,443],[-361,-12],[-540,-865],[-358,-146],[-196,-545],[374,-490],[-517,-78],[-1545,1016],[-661,-143],[-647,210],[-634,-343],[-451,84],[871,257],[103,620],[477,432],[-10,497],[-463,1713],[-732,1252],[-376,-62],[-362,796],[-647,-714],[-150,-778],[156,-736],[505,-37],[100,-777],[-397,-1028],[-908,-935],[-3709,-1230],[237,-500],[-1008,-331],[-430,310],[603,286],[-1973,-116],[350,-62],[-176,-1104],[764,97],[-270,-218],[358,-196],[-482,-100],[-798,-1238],[569,-303],[-507,-1006],[-322,438],[181,425],[-2,1182],[378,246],[-366,257],[-32,440],[289,305],[-418,9],[41,369],[-372,-563],[-28,-1885],[-177,2513],[-357,276],[-159,-23],[179,-282],[-5,-778],[-323,683],[-743,295],[-313,-217],[259,-70],[-87,-171],[-735,-585],[-902,-169],[26,-406],[448,199],[429,-205],[941,670],[-236,-540],[462,-392],[175,-601],[-81,-614],[-406,-64],[11,-660],[-204,634],[-522,62],[-61,1118],[-288,-123],[-219,-1598],[250,-918],[-197,-112],[-6,-171],[-1337,1066],[124,1519],[-135,262],[267,257],[-30,451],[-439,-773],[-288,23],[-162,541],[-288,-468],[-821,-28],[-47,-212],[-30,246],[-190,-50],[-124,-310],[321,-173],[40,239],[31,-323],[271,-97],[-481,-368],[-731,41],[-1313,528],[-55,363],[312,680],[-78,819],[-580,-909],[-306,-120],[-203,1440],[-293,-929],[156,-621],[-52,-1737],[-2457,-335],[-464,-624],[-397,-68],[-223,482],[-1325,-50],[132,1136],[-375,-551],[-203,346],[-875,113],[211,-1019],[-2289,-1148],[-62,-377],[-840,-831],[-426,-1229],[379,-209],[433,287],[-290,-646],[-606,-214],[-1397,522],[-350,-218],[283,-21],[-609,22],[-497,510],[176,569],[-44,1486],[-542,1511],[105,1613],[-282,656],[304,42],[107,391],[-413,411],[3,391],[-455,42],[-353,-546],[-1007,628],[-351,901],[-783,631],[-644,-708],[-761,493],[19,-1215],[-709,-144],[-194,-1089],[522,-586],[278,166],[-65,-183],[238,-161],[-789,-27],[-313,728],[-1018,-150],[-46,-321],[-1052,-442],[-705,4],[-1305,-681],[-2688,1421],[-114,-602],[-588,25],[46,454],[-58,192],[-54,44],[41,-506],[-286,-420],[-499,453],[-197,-1147],[414,37],[-353,-384],[-985,431],[-123,1392],[302,850],[-158,162],[-411,-418],[-204,-740],[-1197,-61],[348,-557],[46,-609],[-1793,-108],[-184,146],[19,301],[-101,105],[-60,5],[176,-532],[-150,-321],[1335,-219],[368,270],[151,-901],[-301,-786],[-556,-246],[-369,-626],[-1007,-36],[-683,-561],[414,-390],[236,417],[373,-806],[245,139],[-107,-588],[-336,550],[-265,-629],[-406,13],[-508,764],[-318,-533],[-83,-1112],[-185,194],[-244,-509],[682,-581],[212,286],[59,-1012],[616,685],[497,189],[-85,-591],[-271,-227],[46,-419],[-356,-99],[669,-491],[-652,-519],[70,480],[-445,343],[-126,520],[-225,-129],[30,-363],[-351,69],[-116,362],[314,588],[-507,428],[-440,-476],[-340,-2350],[561,-131],[-13,346],[187,-187],[552,-2102],[443,-471],[-59,-546],[341,-1155],[303,-433],[1339,-816],[148,-941],[348,-273],[507,-4321],[611,-1652],[874,-404],[1066,243],[1491,846],[980,-107],[-393,-357],[-162,-1374],[118,-452],[-548,-1176],[703,-7087],[1773,-1135],[105,-812],[613,-1205],[46,-509],[-559,-1057],[-100,-1908],[232,-1247],[369,-703],[1068,-401],[1490,181],[823,408],[835,1707],[170,1413],[396,373],[37,957],[1177,958],[64,664],[591,755],[1074,401],[716,1178],[1478,60],[1241,1785],[341,-119],[-15,-206],[1411,385],[418,-601],[246,235],[387,1208],[309,2340],[81,2742],[-270,227],[114,1408],[299,453],[-269,944],[692,318],[64,723],[899,484],[291,1990],[-232,896],[197,395],[338,-235],[363,431],[527,-580],[1036,-14],[214,-269],[750,282],[633,-1588],[218,-230],[-54,284],[200,23],[288,-588],[28,-1446],[-659,-3436],[48,-1158],[-308,-1685],[93,-915],[500,-1152],[-775,-3478],[-124,-2037],[173,-1170],[163,-242],[197,109],[101,-667],[618,-279],[323,199],[269,-293],[-312,-453],[-117,-1132],[173,-303],[350,130],[232,-383],[-157,-1832],[151,-531],[-175,-403],[390,-362],[-305,-455],[-241,244],[-453,-262],[-342,-800],[-346,157],[-2563,-6104],[-1650,-6405],[1121,-3281],[-58,-1100],[-402,-693],[-1082,-245],[-62,-466],[122,-1115],[482,-823],[633,-214],[247,857],[820,-435],[989,60],[351,-508],[509,-182],[470,-767],[218,290],[105,-400],[-340,-228],[-349,479],[-680,-481],[787,-1030],[-37,-281],[-620,-94],[-246,302],[-279,-439],[432,-1039],[405,551],[265,-282],[296,-1050],[219,463],[301,34],[-362,-2158],[518,437],[133,-934],[192,-15],[152,-601],[-276,-242],[-130,-942],[-438,732],[-228,-419],[-1131,743],[-919,1400],[-918,-622],[-318,-1274],[-680,25],[-797,-381],[-546,-1880],[-69,-1551],[1180,-1241],[205,30],[94,493],[331,-481],[-462,-762],[-287,-2708],[-333,-304],[-554,197],[18,-609],[525,-655],[-440,237],[-405,-205],[-253,-1511],[520,-890],[10,-514],[-202,-240],[-305,216],[-127,777],[-544,64],[-1046,-1056],[-913,-176],[-372,-489],[-636,99],[100,442],[-302,401],[42,862],[-402,-864],[-341,-7],[-208,-721],[-604,-657],[77,560],[-712,-39],[-99,383],[-428,-37],[-1221,1351],[-722,-25],[-220,827],[58,1411],[-222,650],[-282,-8],[-568,773],[-42,926],[-267,548],[-802,939],[-359,1175],[108,1067],[-186,368],[76,478],[316,221],[1193,-435],[420,517],[205,-105],[319,1042],[-62,2041],[674,56],[95,239],[165,-74],[88,134],[9,97],[-130,-201],[-125,88],[-271,-280],[-1191,145],[-219,273],[-80,992],[-530,710],[-926,-753],[-448,261],[1045,2150],[-520,951],[-848,846],[618,644],[267,-70],[127,213],[101,-120],[133,31],[81,108],[152,-107],[73,3],[63,71],[-286,58],[-160,-118],[-160,123],[-712,-262],[-365,-534],[23,-285],[-163,30],[-412,-1007],[-413,-236],[-85,563],[330,859],[25,741],[-457,906],[-424,101],[-315,-311],[-517,400],[-305,-913],[-559,450],[275,840],[607,264],[72,648],[-307,402],[233,119],[-1132,1247],[-812,1983],[-1018,208],[-263,-659],[-605,941],[-927,-419],[-44,400],[484,78],[39,245],[418,-50],[444,417],[692,-157],[178,551],[-135,403],[344,968],[-386,831],[243,768],[-1623,3516],[-886,3141],[-1439,3827],[-1553,3070],[-3383,5644],[-6939,7712],[-2474,2055],[-2675,1519],[-2649,747],[-1502,-12],[-1045,-366],[-2679,-2416],[-1282,-3998],[-86,-2232],[113,-437],[375,-232],[-47,-1064],[575,-2121],[-272,-29],[-242,-673],[-2110,-1802],[-362,-809],[-865,-369],[-675,156],[-286,-505],[-661,479],[-1880,39],[-345,-245],[-1042,-1766],[-166,169],[-533,-765],[-294,1020],[-424,333],[174,352],[-237,443],[-244,-23],[303,955],[-177,258],[-273,-84],[224,1188],[191,145],[-100,605],[343,535],[-182,1510],[-724,2760],[-414,641],[-148,1062],[-470,429],[117,703],[-321,981],[90,422],[-421,2510],[-844,1697],[-374,2042],[-1527,5289],[-2991,6921],[-2698,5279],[-2765,4856],[-3081,4070],[-3758,3482],[-241,697],[-1735,-83],[-597,-421],[-1103,-94],[-1065,-580],[-730,-1338],[-220,-886],[-608,-413],[-79,-388],[-385,-334],[146,-577],[-560,257],[-906,-331],[105,-566],[-320,-389],[-464,56],[36,-254],[-238,-28],[-745,765],[-242,-179],[-378,506],[-423,-51],[-174,-358],[-644,316],[-687,-378],[-380,178],[-270,-409],[-590,-91],[-367,-432],[-1193,1595],[-799,426],[-1133,1931],[-748,598],[-580,-39],[-658,775],[-1679,5600],[-885,2186],[-3905,7337],[-2066,3301],[-405,-34],[-74,491],[-656,476],[-281,-101],[-272,267],[-329,-296],[-492,467],[-249,-138],[-147,355],[-252,-304],[-236,319],[-320,-55],[-527,883],[-582,-11],[-72,469],[-542,389],[-188,-248],[-28,296],[-353,216],[-507,-229],[-144,558],[-1508,-376],[-134,304],[-598,-143],[-1150,374],[-1469,-21],[-397,-425],[-477,322],[-188,1740],[-702,599],[-64,620],[2866,271],[1006,631],[2314,601],[849,1170],[379,1756],[-135,308],[304,-26],[301,571],[-383,1455],[259,853],[-92,252],[-567,1106],[-1076,631],[616,604],[554,1432],[158,1274],[-170,1884],[581,1103],[46,752],[-105,1190],[-629,2067],[-426,1072],[-774,1054],[850,-229],[473,-445],[1377,491],[1424,-911],[657,763],[2418,306],[954,-1539],[1081,-338],[1752,264],[363,306],[1791,3083],[817,2155],[748,2912],[392,3715],[-168,1100],[-644,1394],[-491,508],[-1153,485],[-689,-11],[-791,-877],[-184,230],[144,3389],[-125,463],[661,2543],[75,1109],[-464,1554],[-1481,1421],[-736,1827],[-26,1854],[-199,165],[-156,1415],[-463,1092],[54,988],[222,315],[-203,274],[2,534],[-278,266],[51,949],[-377,-140],[-286,417],[-425,-62],[-534,539],[-1595,285],[-835,1791],[-1188,13],[-374,829],[78,-371],[-242,-236],[-164,406],[-1331,-199],[-813,-1825],[-575,-410],[-2107,757],[-131,606],[133,278],[-234,-218],[-235,382],[216,-723],[-587,284],[-1554,-351],[-530,131],[-1354,1426],[-699,224],[-462,-277],[-86,-166],[186,-122],[-400,-434],[-69,-839],[376,-618],[-182,-633],[-485,-682],[-196,154],[-290,-743],[-685,205],[-268,-1053],[94,-313],[-220,-92],[-78,294],[-1189,-1009],[137,-331],[-1193,120],[-400,-206],[-2045,326],[-637,523],[-6,629],[505,1244],[-554,997],[-229,1211],[-405,-327],[-558,498],[-170,-68],[11,-390],[-54,305],[-219,103],[144,-209],[-137,-450],[-475,519],[-384,-699],[445,48],[-128,-339],[153,-828],[-312,110],[62,-728],[672,-629],[263,-674],[-1288,-935],[133,-320],[-221,3],[-1037,-2422],[-1589,-2120],[-421,-1582],[-91,-1255],[89,-551],[666,-50],[14,-382],[-233,-257],[-26,-1006],[-241,-206],[-49,-1283],[-1866,514],[-18,754],[-517,639],[-19,499],[-135,179],[-12,-675],[-401,-277],[-370,280],[312,-338],[-206,-277],[361,-1514],[226,29],[-116,-470],[264,-356],[-218,-749],[-369,210],[313,-1298],[-303,-491],[-410,608],[137,-752],[233,-749],[327,-162],[49,-885],[702,-634],[198,-715],[922,-306],[446,-1009],[-608,-1823],[18,-1712],[603,-1273],[504,-149],[-165,-874],[-738,-394],[-486,225],[-265,518],[-801,451],[-123,763],[-421,602],[-294,5],[-118,-1239],[-879,239],[-87,-550],[1244,-257],[2218,-1389],[394,-1044],[-110,-1049],[429,-360],[-10,-419],[747,-127],[124,-1095],[384,-519],[-257,-149],[301,-15],[168,355],[-13,-678],[-1341,468],[-1329,95],[-3843,1907]],[[992189,307945],[-134,1045],[402,93],[56,597],[-423,1365],[513,-527],[950,-1967],[3,-397],[-217,0],[251,-1010],[-231,-226],[-684,69],[-429,343],[-57,615]],[[985351,309633],[102,173],[173,-451],[-376,6],[101,272]],[[656407,105950],[149,109],[145,-133],[-134,-74],[-160,98]],[[653431,101317],[-4142,-2813],[563,67],[125,-352],[252,182],[-34,-165],[-340,-65],[-952,295],[217,245],[-536,76],[82,-253],[-1648,600],[53,912],[-413,1552],[498,479],[297,-589],[306,90],[244,2438],[596,336],[206,451],[627,65],[339,533],[594,166],[89,-1623],[704,304],[-506,266],[114,355],[1715,-297],[163,657],[709,323],[1612,-767],[1536,232],[-175,-2182],[-971,-576],[-1069,-199],[-855,-743]],[[652416,95722],[720,1191],[385,252],[-156,-67],[216,296],[36,245],[449,56],[-23,205],[-443,-246],[-250,-511],[-1635,33],[-116,322],[564,316],[-146,-166],[303,-23],[502,606],[56,-230],[132,441],[150,-108],[568,566],[1015,1614],[924,-445],[743,526],[-1187,-1565],[-3904,-6433],[-507,-7],[576,481],[453,2242],[575,409]],[[655866,101789],[277,26],[234,663],[-215,-735],[-495,-35],[373,455],[-174,-374]],[[653515,100936],[-11,54],[49,89],[10,-30],[-48,-113]],[[649893,95434],[804,807],[118,-58],[-446,-487],[-476,-262]],[[649158,93142],[-396,-155],[1343,-225],[-1748,-251],[1554,-513],[437,218],[225,-304],[-70,-349],[-725,-12],[647,125],[-1651,572],[-2354,135],[-1299,-523],[-2063,-1572],[-635,347],[1567,595],[1490,1086],[1953,979],[728,-309],[997,156]],[[650190,92898],[2,86],[67,-194],[39,-318],[-108,426]],[[648009,95175],[69,95],[861,173],[1115,921],[-1360,-1179],[-685,-10]],[[649355,96543],[-1027,-60],[-42,-342],[-467,-288],[-458,328],[20,-303],[-754,-451],[56,-406],[219,-112],[-626,-447],[-173,127],[888,2388],[1078,356],[563,-237],[-891,51],[-256,-290],[1870,-314]],[[649054,94906],[-21,49],[76,-58],[-19,-30],[-36,39]],[[648824,95077],[39,47],[55,-177],[-26,3],[-68,127]],[[647931,93248],[162,-39],[36,-99],[-56,71],[-142,67]],[[647199,95016],[211,212],[217,-50],[-14,-30],[-414,-132]],[[646932,95076],[-7,96],[180,-54],[-54,-131],[-119,89]],[[645162,96742],[-522,8],[319,287],[803,-308],[-436,-391],[-164,404]],[[643581,96542],[-722,139],[-23,857],[512,126],[1182,-616],[-54,-417],[332,-223],[-452,-297],[-775,431]],[[642998,93482],[308,294],[178,79],[-794,-680],[-186,186],[272,572],[222,-451]],[[642867,93980],[228,438],[223,-9],[-342,-545],[-109,116]],[[642245,93539],[-66,-317],[-257,-62],[294,449],[29,-70]],[[641902,95665],[146,-31],[21,-107],[-324,64],[157,74]],[[641074,94988],[682,-140],[141,-229],[-497,-217],[-596,197],[270,389]],[[641631,93969],[29,130],[117,22],[-151,-315],[5,163]],[[641619,92888],[-190,-282],[-466,64],[574,868],[-113,-308],[195,-342]],[[639229,93025],[-976,-1280],[-261,1062],[-338,355],[703,-229],[487,251],[166,602],[-158,1256],[512,213],[276,871],[269,-677],[-279,18],[2,-495],[711,-836],[591,-267],[-880,-746],[-277,744],[-270,127],[-2,-528],[-276,-441]],[[640065,95005],[-111,764],[-177,266],[294,-95],[616,-928],[-114,-370],[-508,363]],[[640274,92851],[88,87],[64,-75],[-169,-53],[17,41]],[[640194,92059],[-12,32],[126,78],[-14,-74],[-100,-36]],[[639650,91603],[22,100],[519,-203],[-346,-175],[-195,278]],[[637418,86698],[1503,1793],[-32,437],[532,440],[708,-10],[-2185,-2132],[-2953,-3929],[-258,-191],[-419,193],[-14,382],[184,-427],[483,99],[1354,2531],[428,250],[-91,224],[760,340]],[[639603,92741],[127,357],[85,13],[64,-315],[-276,-55]],[[639316,91637],[-324,-341],[-324,195],[538,310],[110,-164]],[[636183,91099],[111,704],[1170,1334],[222,-90],[174,-843],[-215,-69],[19,-275],[330,-248],[-494,-219],[364,-238],[349,214],[90,-248],[-311,-385],[-1208,-368],[-404,-404],[-241,438],[44,697]],[[637521,93227],[169,85],[15,-9],[-110,-79],[-187,-11],[113,14]],[[637121,40024],[-181,295],[129,234],[311,-273],[-259,-256]],[[636707,88119],[147,226],[190,-132],[-111,-67],[-226,-27]],[[635708,86937],[62,-225],[315,70],[-353,376],[246,123],[575,-487],[-735,-161],[-158,92],[48,212]],[[635259,92211],[19,63],[362,95],[-26,-42],[-355,-116]],[[635451,89211],[-296,-136],[-54,-205],[-7,126],[139,296],[218,-81]],[[635302,91211],[21,257],[95,53],[-17,-262],[-99,-48]],[[635135,88645],[34,131],[273,-289],[-170,8],[-137,150]],[[635361,86614],[3,-294],[-259,200],[23,223],[163,172],[-142,-285],[212,-16]],[[634950,91363],[18,117],[34,36],[-5,-214],[-47,61]],[[633091,91997],[782,1121],[1064,-204],[-786,-219],[34,-564],[-228,-429],[587,-229],[167,-846],[-481,-11],[-784,656],[-355,725]],[[634404,93826],[139,48],[296,-392],[-146,31],[-289,313]],[[634319,39386],[103,477],[392,-239],[-300,-292],[-195,54]],[[633931,41941],[-329,562],[144,311],[476,-672],[-95,-465],[-196,264]],[[628456,84050],[220,-52],[-1179,-32],[417,153],[-48,368],[-429,-447],[-566,207],[255,311],[-762,-538],[-698,292],[-295,558],[802,297],[-587,281],[33,-309],[-357,-14],[-292,-373],[542,-831],[499,61],[-304,-525],[-1782,1927],[-46,698],[365,191],[-79,400],[1489,1782],[1854,663],[-387,-304],[-48,-413],[1554,-150],[910,649],[-99,-586],[-907,-338],[-30,-328],[323,-126],[777,-128],[111,885],[269,429],[246,0],[1147,-277],[-549,-614],[-7,-298],[908,692],[868,128],[949,-294],[-1168,-853],[60,-184],[448,53],[197,369],[809,-127],[-161,-515],[345,252],[-522,-1302],[-1448,-2],[-756,-738],[-1564,-213],[-632,-578],[-24,405],[-671,-562]],[[628761,83976],[595,75],[388,365],[388,-250],[1003,63],[1026,676],[344,-334],[641,530],[-141,-480],[-1703,-1237],[-2459,349],[-82,243]],[[621889,80466],[105,487],[344,301],[-8,427],[960,198],[447,-744],[-135,-792],[297,17],[198,516],[475,-452],[-854,-1029],[506,173],[521,768],[1043,-232],[-37,-365],[-344,-317],[206,-842],[340,-2],[312,505],[166,-336],[1422,-457],[-685,-401],[798,-496],[3552,624],[114,382],[1032,717],[201,543],[-386,399],[314,-79],[184,-574],[-1301,-1463],[-3342,-756],[-1653,595],[-1480,-630],[-1845,-1790],[-2224,-3165],[-884,-799],[-848,-310],[-886,285],[-883,1057],[-712,440],[-3130,1317],[-2593,4813],[-753,2084],[807,709],[-187,618],[128,750],[692,-236],[498,576],[-196,-355],[184,-239],[1446,108],[1196,1863],[422,182],[-395,-1285],[-327,-309],[1025,266],[363,-1021],[-397,-503],[-664,-55],[239,-703],[585,-64],[488,574],[367,-29],[-221,430],[486,518],[356,-110],[-309,384],[1138,-172],[823,300],[-917,-2149],[-522,225],[-367,-270],[-277,-708],[-1106,-687],[-516,-1269],[581,-252],[236,274],[404,-63],[128,576],[386,-487],[-1685,-1299],[-519,-152],[-659,287],[403,-429],[-127,-377],[-179,224],[67,-194],[151,-66],[393,223],[888,-132],[705,475],[498,-72],[1704,740],[373,-324],[452,113],[216,175],[-694,178],[1078,979],[23,337],[1781,1310]],[[632349,45746],[393,-628],[-485,-315],[-241,962],[333,-19]],[[631390,96068],[226,541],[282,-11],[-174,-339],[-334,-191]],[[631120,91298],[154,161],[438,-12],[137,-92],[-729,-57]],[[631144,93874],[83,416],[320,246],[87,-658],[-490,-4]],[[630145,91285],[129,347],[292,190],[345,95],[221,-90],[-152,-245],[-190,259],[-476,-254],[-104,-396],[231,-203],[-228,89],[-68,208]],[[627892,78940],[178,445],[834,27],[1049,687],[232,-576],[-201,110],[-672,-518],[-756,198],[-664,-373]],[[628353,90162],[250,-555],[636,-433],[-429,-113],[-923,561],[555,936],[-89,-396]],[[628429,92503],[50,123],[426,83],[-203,-234],[-273,28]],[[626433,91651],[-195,-379],[-942,135],[840,422],[297,-178]],[[626305,92455],[37,-274],[-221,72],[95,198],[89,4]],[[624797,90838],[-32,-226],[-562,-407],[-94,291],[688,342]],[[623141,88225],[11,51],[171,-44],[-97,-121],[-85,114]],[[622928,88865],[127,-162],[-66,-280],[-104,246],[43,196]],[[622868,87208],[-23,31],[40,67],[11,-56],[-28,-42]],[[622498,88469],[130,-646],[-346,-116],[117,887],[99,-125]],[[621584,85924],[173,169],[649,-354],[-532,-168],[-290,353]],[[622113,90365],[90,241],[34,5],[19,-185],[-143,-61]],[[621860,89177],[305,202],[95,-428],[-446,-104],[-445,333],[491,-3]],[[620111,87870],[220,308],[395,-336],[393,141],[98,-329],[-1106,216]],[[619295,80173],[169,797],[336,-22],[-312,-352],[66,-245],[734,365],[-53,-451],[-540,-416],[-400,324]],[[619018,79741],[-16,-212],[-280,-120],[195,327],[101,5]],[[618805,79736],[87,177],[50,25],[-83,-211],[-54,9]],[[617560,86153],[449,-488],[403,-211],[-538,132],[-314,567]],[[617287,80613],[82,275],[155,-129],[-76,-215],[-161,69]],[[615464,83953],[-27,498],[800,118],[-514,-613],[-259,-3]],[[615919,48045],[-83,-566],[-776,-208],[558,1019],[191,96],[110,-341]],[[610253,85996],[27,227],[767,-17],[13,-207],[910,349],[1407,-335],[577,-768],[449,434],[180,-179],[-952,-1727],[-1062,1418],[-603,12],[-198,-340],[-904,430],[-832,-1256],[-1408,-933],[-1046,153],[212,1350],[600,1663],[843,350],[377,-233],[-116,-265],[759,-126]],[[610367,81694],[67,167],[161,-323],[-198,-211],[-30,367]],[[602605,68095],[41,-127],[-175,-85],[6,156],[128,56]],[[599713,61233],[338,150],[-30,-511],[-240,-76],[-68,437]],[[598421,3891],[452,269],[888,-322],[-62,-203],[-911,-126],[-367,382]],[[594590,2787],[-486,508],[-582,1385],[808,-710],[592,36],[325,-369],[168,171],[19,-758],[-390,-772],[-454,509]],[[593345,337],[-426,920],[254,486],[721,-1284],[-259,-395],[-290,273]],[[592705,1369],[-36,47],[12,95],[125,-94],[-101,-48]],[[592433,922],[-48,53],[46,145],[72,-140],[-70,-58]],[[592021,659],[-6,83],[79,138],[16,-175],[-89,-46]],[[591390,234],[130,332],[226,-77],[-125,-489],[-231,234]],[[589607,74661],[17,257],[303,-88],[-115,-241],[-205,72]],[[585434,27015],[291,420],[237,-1122],[257,-312],[-533,-1021],[-347,227],[441,250],[26,499],[-678,435],[354,390],[-48,234]],[[585558,8353],[-41,199],[262,134],[135,-671],[-356,338]],[[584574,13624],[-30,328],[-547,47],[-146,258],[-21,931],[-405,1481],[239,348],[352,-339],[147,-1467],[378,-965],[318,315],[193,-478],[635,-536],[-528,-1739],[-310,414],[-275,1402]],[[585241,9604],[-212,840],[124,763],[209,-923],[315,-441],[-343,-388],[-93,149]],[[584917,8622],[284,485],[165,-5],[85,-468],[-243,-670],[-339,372],[48,286]],[[583742,36554],[9,582],[729,131],[362,-346],[-1070,-844],[-30,477]],[[478650,148972],[-83,468],[-519,410],[486,357],[228,1085],[-453,2118],[1,1371],[628,2666],[361,2484],[40,1971],[493,2123],[118,295],[433,-13],[389,458],[72,-36],[7,-380],[110,-229],[-236,-211],[8,-188],[248,358],[-137,701],[-196,-30],[-324,-396],[-531,124],[-102,377],[82,372],[304,-65],[63,168],[-391,4],[89,1288],[470,450],[-299,185],[61,1587],[875,512],[754,-97],[802,-728],[331,71],[587,-788],[1198,-457],[889,-2329],[1017,-1118],[494,-202],[2245,-558],[922,111],[1887,1186],[1476,568],[1630,-721],[2502,398],[473,-133],[795,-913],[610,-1416],[144,-1315],[690,-1272],[1410,-1292],[529,-30],[242,-784],[1242,-1946],[-4,-229],[-85,280],[-288,-109],[-1954,-1520],[-682,-963],[-1914,69],[-803,-296],[-423,-519],[-522,295],[-884,-82],[-977,-474],[-1327,302],[-934,-513],[-1743,-2389],[-79,-836],[362,-954],[-60,-400],[-888,-640],[174,-1339],[-664,-74],[-106,-549],[-332,94],[-130,751],[-416,348],[-1068,-531],[-286,-380],[-58,-662],[-447,-430],[-197,-1141],[-406,28],[-700,1053],[-600,400],[-385,100],[-485,-546],[-508,713],[-554,-358],[-262,1132],[-704,981],[-701,64],[-491,591],[-1462,554],[-492,-316],[-810,463],[301,-344],[358,-1488],[-553,-327],[-192,-567],[-470,-21],[25,908],[-551,308],[498,95],[460,793],[255,2056]],[[488578,143407],[233,898],[149,60],[-9,-629],[296,-566],[-399,-286],[-270,523]],[[465815,132693],[506,807],[-1,450],[306,-192],[654,253],[2189,1654],[693,1053],[722,248],[884,176],[1613,-198],[1188,541],[-38,218],[59,24],[40,-336],[341,127],[581,-379],[2850,-458],[1728,216],[963,-262],[433,-463],[-906,366],[-810,-432],[-877,-34],[-41,-643],[-423,-109],[-188,-391],[121,172],[203,-379],[186,336],[106,-153],[257,307],[-27,315],[439,255],[213,-236],[-30,-378],[-628,-435],[709,285],[326,598],[224,-276],[459,196],[1565,-672],[-34,-977],[-891,-234],[-556,-1768],[-701,-857],[25,-1173],[241,-382],[707,-64],[449,727],[223,-63],[-171,-879],[341,-774],[-218,-591],[-583,88],[-293,-610],[64,-1398],[2025,-552],[145,281],[311,-191],[292,429],[569,45],[540,415],[817,-964],[429,152],[361,-253],[279,204],[19,441],[244,-404],[597,117],[195,-544],[327,-66],[70,-92],[-297,21],[294,-117],[95,-556],[-208,-283],[-1311,-435],[-339,-364],[-359,-805],[-312,-1884],[340,-1015],[1079,-1176],[243,-708],[841,-255],[94,-402],[-354,-563],[74,-321],[-373,-384],[274,-1178],[-1039,-228],[-121,773],[-624,173],[-86,487],[-235,257],[415,209],[95,322],[-282,1230],[-964,1803],[-2104,3062],[-317,128],[-605,945],[-1052,590],[-219,380],[-1273,746],[-1191,199],[-360,743],[-458,-586],[-410,-45],[-968,842],[-821,-221],[-128,-540],[-663,171],[-513,-520],[-14,-502],[-255,-123],[61,-686],[-170,116],[61,-202],[-309,-245],[-108,-371],[162,-169],[-335,-579],[-497,-364],[-174,-821],[-497,1077],[-833,-145],[-104,807],[-521,703],[-292,136],[-327,-378],[-348,-5],[-31,561],[-272,193],[-563,-213],[-341,547],[-1055,-266],[-214,809],[-209,110],[-346,-225],[132,-464],[-327,-122],[-239,639],[-1091,190],[-418,-240],[-79,-712],[-435,-392],[-370,294],[-1015,-659],[-71,403],[-227,-387],[-200,318],[-964,-559],[-384,189],[531,942],[7,513],[465,281],[231,770],[674,-558],[602,505],[554,16],[360,489],[203,915],[-75,1189],[436,696],[17,1117],[374,663],[33,772],[537,698]],[[486891,114543],[6,29],[21,-5],[2,-7],[-29,-17]],[[486589,142371],[-24,12],[17,55],[26,-30],[-19,-37]],[[486511,115022],[-9,0],[2,61],[19,-28],[-12,-33]],[[485447,128454],[-72,-356],[551,-698],[132,-842],[258,-92],[41,-888],[-653,1236],[-499,85],[-300,460],[364,1047],[178,48]],[[486137,115361],[-19,21],[4,18],[40,-29],[-25,-10]],[[480044,135928],[489,217],[325,-209],[-140,-90],[-674,82]],[[471582,160298],[-266,-364],[-201,-434],[-65,971],[350,259],[182,-432]],[[460612,123627],[-31,51],[135,55],[-63,-104],[-41,-2]],[[460161,123481],[-43,224],[293,-41],[-140,-201],[-110,18]],[[437627,128499],[4,58],[66,-8],[-9,-79],[-61,29]],[[437678,128625],[20,-34],[-1,-9],[-50,67],[31,-24]],[[437555,128530],[12,58],[68,39],[-44,-92],[-36,-5]],[[436250,128497],[-19,34],[12,31],[20,-8],[-13,-57]],[[435631,127170],[-24,91],[113,23],[4,-171],[-93,57]],[[435576,126757],[34,-30],[-61,-39],[-5,54],[32,15]],[[435321,127759],[-18,13],[35,24],[6,-15],[-23,-22]],[[435298,128278],[-2,31],[30,4],[-7,-34],[-21,-1]],[[435301,128188],[-15,19],[29,4],[-4,-19],[-10,-4]],[[435286,127841],[-12,15],[13,12],[10,-13],[-11,-14]],[[435272,128086],[-18,8],[1,15],[23,4],[-6,-27]],[[435226,127960],[-46,34],[12,61],[58,-37],[-24,-58]],[[435155,128038],[1,58],[32,6],[-1,-33],[-32,-31]],[[424402,147806],[-2,41],[21,13],[10,-57],[-29,3]],[[419172,155075],[30,35],[44,-17],[-17,-20],[-57,2]],[[419208,154613],[-31,15],[3,14],[22,10],[6,-39]],[[419140,154820],[-15,21],[9,28],[34,-24],[-28,-25]],[[419158,154578],[-12,16],[13,19],[8,-20],[-9,-15]],[[419112,155053],[-1,42],[27,22],[-7,-46],[-19,-18]],[[418690,155349],[-7,25],[10,25],[18,-16],[-21,-34]],[[418463,155737],[1,30],[28,35],[-8,-51],[-21,-14]],[[418173,156179],[4,-24],[-10,-5],[-5,25],[11,4]],[[411066,174480],[-418,231],[18,693],[301,161],[1360,2368],[273,-510],[-332,-1399],[71,-607],[390,556],[429,-78],[348,273],[41,758],[762,305],[602,-366],[-452,-960],[-1007,-668],[-982,-266],[-1020,-871],[185,432],[-514,38],[106,-763],[105,198],[-230,-805],[243,-158],[67,607],[278,-559],[-106,-326],[-538,477],[153,484],[-133,755]],[[413111,176358],[-139,120],[-38,109],[389,-162],[-212,-67]],[[410972,173880],[-218,-282],[-290,227],[484,341],[24,-286]],[[407791,172208],[75,115],[48,-139],[-61,-14],[-62,38]],[[270765,72894],[-7,82],[41,-2],[-4,-56],[-30,-24]],[[255512,75095],[0,105],[93,-44],[-36,-67],[-57,6]],[[238085,94712],[-21,13],[26,41],[12,-19],[-17,-35]],[[237994,94714],[-29,14],[22,31],[13,-3],[-6,-42]],[[237525,95432],[-27,35],[-2,33],[41,-23],[-12,-45]],[[237275,95679],[-6,37],[50,0],[-3,-35],[-41,-2]],[[237148,95858],[-9,27],[16,20],[14,-29],[-21,-18]],[[236663,96135],[27,56],[42,-1],[-24,-84],[-45,29]],[[235887,96640],[-51,35],[14,78],[73,-42],[-36,-71]],[[235383,97576],[2,-45],[-23,-8],[3,50],[18,3]],[[235155,97344],[56,-65],[-27,-73],[-78,50],[49,88]],[[234558,97954],[30,84],[29,-1],[-19,-62],[-40,-21]],[[234461,97849],[-1,36],[42,9],[-9,-44],[-32,-1]],[[234463,98096],[18,-30],[-33,-23],[-11,29],[26,24]],[[234346,98055],[-21,61],[4,28],[45,-27],[-28,-62]],[[234087,98180],[11,93],[111,122],[-1,-60],[-121,-155]],[[233736,98345],[-13,64],[227,211],[-58,-174],[-156,-101]],[[232957,98320],[192,256],[261,-25],[-63,-92],[-390,-139]],[[232391,99302],[-10,33],[45,26],[-2,-25],[-33,-34]],[[231359,99944],[-54,77],[140,-14],[-32,-89],[-54,26]],[[228526,102126],[-5,148],[86,62],[-18,-111],[-63,-99]],[[116130,143258],[-109,-468],[-993,-1140],[-34,396],[-254,-29],[183,333],[-187,752],[-294,115],[771,808],[798,285],[726,-115],[-607,-937]]]}