{"type":"Topology","objects":{"data":{"geometries":[{"properties":{},"type":"MultiPolygon","arcs":[[[0]],[[1]],[[2]],[[3]],[[4]],[[5]],[[6]],[[7]],[[8]],[[9]],[[10]],[[11]],[[12]],[[13]],[[14]],[[15]],[[16]],[[17]],[[18]],[[19]],[[20]],[[21]],[[22]],[[23]],[[24]],[[25]],[[26]],[[27]],[[28]],[[29]],[[30]],[[31]],[[32]],[[33]],[[34]],[[35]],[[36]],[[37]],[[38]],[[39]],[[40]],[[41]],[[42]],[[43]],[[44]],[[45]],[[46]],[[47]],[[48]],[[49]],[[50]],[[51]],[[52]],[[53]],[[54]],[[55]],[[56]],[[57]],[[58]],[[59]],[[60]],[[61]],[[62]],[[63]],[[64]],[[65]],[[66]],[[67]],[[68]],[[69]],[[70]],[[71]],[[72]],[[73]],[[74]],[[75]],[[76]],[[77]],[[78]],[[79]],[[80]],[[81]],[[82]],[[83]],[[84]],[[85]],[[86]],[[87]],[[88]],[[89]],[[90]],[[91]],[[92]],[[93]],[[94]],[[95]],[[96]],[[97]],[[98]],[[99]],[[100]],[[101]],[[102]],[[103]],[[104]],[[105]],[[106]],[[107]],[[108]],[[109]],[[110]],[[111]],[[112]],[[113]],[[114]],[[115]],[[116]],[[117]],[[118]],[[119]],[[120]],[[121]],[[122]],[[123]],[[124]],[[125]],[[126]],[[127]],[[128]],[[129]],[[130]],[[131]],[[132]],[[133]],[[134]],[[135]],[[136]],[[137]],[[138]],[[139]],[[140]],[[141]],[[142]],[[143]],[[144]],[[145]],[[146]],[[147]],[[148]],[[149]],[[150]],[[151]],[[152]],[[153]],[[154]],[[155]],[[156]]],"id":1}],"type":"GeometryCollection"}},"bbox":[140.9618657997175,-39.15917647027521,149.97619755281158,-33.980636402904565],"transform":{"scale":[9.012519868778938e-06,5.178358818100611e-06],"translate":[140.96368669655251,-39.15899004264636]},"arcs":[[[467377,147203],[-467142,65800],[-235,786996],[999999,-680624],[-532622,-172172]],[[992187,307945],[324,1736],[-433,1363],[1517,-3882],[-1408,783]],[[985348,309633],[102,173],[173,-451],[-376,6],[101,272]],[[656338,105951],[149,108],[145,-132],[-134,-74],[-160,98]],[[653361,101318],[-3577,-3146],[-3197,3426],[9878,3354],[-3104,-3634]],[[652346,95722],[-817,1777],[4820,3084],[-5100,-7986],[-515,1],[1612,3124]],[[655796,101789],[278,27],[234,663],[-247,-769],[-471,26],[206,53]],[[653445,100937],[-4,81],[50,56],[-1,-37],[-45,-100]],[[649822,95434],[804,807],[123,-69],[-451,-476],[-476,-262]],[[649087,93142],[1405,-1461],[-8141,-1046],[5021,2664],[1715,-157]],[[650119,92898],[2,86],[115,-505],[-26,28],[-91,391]],[[647938,95175],[69,95],[861,173],[1115,921],[-1360,-1179],[-685,-10]],[[649284,96543],[-1984,-356],[-1272,-1585],[892,2375],[2364,-434]],[[648983,94906],[-21,49],[76,-58],[-19,-30],[-36,39]],[[648753,95077],[39,48],[55,-178],[-26,3],[-68,127]],[[647860,93248],[162,-39],[36,-99],[-56,71],[-142,67]],[[647128,95016],[211,212],[219,-63],[-126,-19],[-304,-130]],[[646861,95076],[-7,96],[181,-66],[-55,-119],[-119,89]],[[645090,96742],[-522,8],[319,287],[803,-308],[-600,13]],[[643509,96542],[-800,867],[2027,-1002],[-443,-297],[-784,432]],[[642926,93482],[308,294],[183,65],[-799,-666],[-186,186],[494,121]],[[642795,93980],[228,438],[223,-9],[-342,-545],[-109,116]],[[642173,93540],[-66,-318],[-257,-62],[287,441],[36,-61]],[[641830,95665],[146,-31],[29,-83],[-334,52],[159,62]],[[641001,94988],[683,-140],[141,-229],[-1117,25],[293,344]],[[641559,93969],[29,130],[117,22],[-151,-315],[5,163]],[[641547,92888],[-190,-282],[-467,64],[575,868],[82,-650]],[[639156,93025],[-976,-1279],[-599,1416],[1996,2960],[-421,-3097]],[[639992,95005],[-111,764],[-177,266],[910,-1023],[-622,-7]],[[640201,92851],[88,87],[64,-75],[-169,-53],[17,41]],[[640121,92059],[-3,41],[117,69],[-22,-82],[-92,-28]],[[639577,91603],[22,100],[520,-191],[-347,-187],[-195,278]],[[637345,86699],[1471,2229],[1240,430],[-5198,-6122],[-310,-127],[-353,293],[3150,3297]],[[639530,92741],[127,357],[93,3],[56,-305],[-276,-55]],[[639243,91637],[-324,-341],[-324,195],[529,308],[119,-162]],[[636109,91100],[1282,2037],[839,-2003],[-1923,-1170],[-198,1136]],[[637448,93227],[169,85],[15,-8],[-110,-79],[-187,-12],[113,14]],[[637048,40024],[-141,463],[350,-52],[34,-311],[-243,-100]],[[636634,88119],[147,226],[190,-132],[-120,-69],[-217,-25]],[[635634,86937],[270,344],[576,-487],[-678,-171],[-168,314]],[[635185,92211],[19,63],[362,95],[-26,-42],[-355,-116]],[[635377,89211],[-296,-136],[-54,-204],[-7,126],[139,295],[218,-81]],[[635228,91211],[32,284],[101,13],[-34,-248],[-99,-49]],[[635061,88645],[34,131],[273,-288],[-170,7],[-137,150]],[[635287,86614],[-7,-297],[-249,204],[23,223],[163,172],[70,-302]],[[634876,91364],[18,116],[34,36],[-5,-214],[-47,62]],[[633017,91997],[773,1117],[1073,-200],[-226,-2287],[-1620,1370]],[[634330,93826],[139,48],[300,-379],[-150,18],[-289,313]],[[634245,39386],[103,477],[392,-239],[-300,-292],[-195,54]],[[633857,41942],[-329,562],[39,232],[581,-593],[-291,-201]],[[628381,84050],[-4610,1877],[10228,1114],[-512,-1297],[-5106,-1694]],[[628686,83976],[3745,595],[641,531],[-1832,-1714],[-2554,588]],[[621813,80466],[11090,-1060],[-13580,-8319],[-5612,3100],[-3347,6897],[11449,-618]],[[632275,45747],[278,-263],[83,-487],[-519,-170],[158,920]],[[631316,96068],[226,541],[287,-22],[-179,-328],[-334,-191]],[[631045,91298],[155,161],[438,-12],[137,-92],[-730,-57]],[[631069,93874],[101,446],[310,207],[80,-649],[-491,-4]],[[630070,91286],[121,336],[300,200],[345,95],[221,-90],[-987,-541]],[[627817,78941],[2061,1159],[232,-576],[-1629,-210],[-664,-373]],[[628278,90163],[367,-685],[524,-292],[-1368,458],[477,519]],[[628354,92503],[50,123],[426,83],[-182,-225],[-294,19]],[[626358,91651],[-196,-379],[-942,135],[830,420],[308,-176]],[[626229,92455],[31,-282],[-220,91],[100,188],[89,3]],[[624721,90838],[-32,-226],[-491,-427],[-173,272],[696,381]],[[623065,88225],[11,51],[171,-44],[-97,-121],[-85,114]],[[622852,88865],[127,-162],[-57,-275],[-113,241],[43,196]],[[622792,87209],[-21,42],[38,56],[11,-56],[-28,-42]],[[622422,88469],[130,-646],[-356,-108],[121,869],[105,-115]],[[621508,85924],[165,171],[657,-355],[-532,-169],[-290,353]],[[622037,90366],[90,240],[40,-4],[2,-196],[-132,-40]],[[621784,89177],[403,-213],[-894,232],[197,85],[294,-104]],[[620034,87870],[220,308],[886,-524],[-564,49],[-542,167]],[[619218,80173],[169,798],[827,-269],[-596,-853],[-400,324]],[[618941,79742],[-16,-213],[-286,-106],[208,322],[94,-3]],[[618728,79737],[87,177],[57,15],[-90,-201],[-54,9]],[[617483,86153],[476,-509],[381,-179],[-526,108],[-331,580]],[[617210,80613],[82,275],[159,-140],[-80,-203],[-161,68]],[[615386,83953],[-27,499],[800,118],[-514,-614],[-259,-3]],[[615841,48045],[-217,-681],[-690,66],[741,966],[166,-351]],[[610174,85996],[1718,352],[2613,-848],[-7011,-2230],[2680,2726]],[[610288,81695],[67,167],[161,-323],[-207,-208],[-21,364]],[[602525,68095],[41,-127],[-189,-63],[26,143],[122,47]],[[599632,61233],[338,150],[-30,-511],[-240,-76],[-68,437]],[[598340,3892],[452,269],[888,-322],[-973,-330],[-367,383]],[[594508,2788],[-486,507],[-582,1385],[1902,-889],[-834,-1003]],[[593263,338],[-426,920],[254,486],[721,-1285],[-549,-121]],[[592623,1370],[-24,141],[125,-93],[-9,-26],[-92,-22]],[[592351,922],[-48,53],[46,146],[72,-141],[-70,-58]],[[591939,659],[70,219],[37,-37],[-26,-149],[-81,-33]],[[591307,234],[130,333],[227,-78],[-126,-489],[-231,234]],[[589524,74662],[17,256],[306,-99],[-118,-229],[-205,72]],[[585350,27016],[785,-1014],[-474,-1005],[-617,1395],[306,624]],[[585474,8353],[221,334],[161,-573],[-163,-127],[-219,366]],[[584490,13624],[-723,634],[-302,2675],[2138,-3386],[-528,-1739],[-585,1816]],[[585157,9604],[-212,840],[124,763],[524,-1364],[-436,-239]],[[584833,8622],[427,507],[107,-486],[-243,-679],[-291,658]],[[583658,36554],[9,582],[1094,-235],[-1048,-819],[-55,472]],[[478545,148972],[2295,20384],[17211,-4797],[5663,-8967],[-25169,-6620]],[[488475,143407],[308,987],[361,-1223],[-399,-286],[-270,522]],[[465707,132693],[5070,4273],[10211,-330],[6934,-22087],[-22215,18144]],[[486787,114543],[6,30],[23,-13],[-13,-11],[-16,-6]],[[486485,142371],[-24,12],[17,55],[26,-30],[-19,-37]],[[486407,115022],[-9,0],[2,61],[19,-28],[-12,-33]],[[485343,128455],[869,-1988],[41,-889],[-1452,1781],[542,1096]],[[486033,115361],[-19,22],[4,17],[40,-29],[-25,-10]],[[479939,135929],[489,217],[325,-210],[-140,-90],[-674,83]],[[471475,160299],[-351,-685],[-132,-92],[95,1184],[388,-407]],[[460503,123627],[-36,41],[140,65],[-63,-104],[-41,-2]],[[460052,123481],[-43,224],[293,-41],[-140,-201],[-110,18]],[[437513,128500],[4,58],[68,-17],[-11,-70],[-61,29]],[[437564,128626],[19,-43],[-50,66],[8,4],[23,-27]],[[437441,128531],[12,57],[73,32],[-57,-93],[-28,4]],[[436136,128498],[-20,40],[13,24],[20,-8],[-13,-56]],[[435517,127171],[27,136],[76,-63],[-20,-140],[-83,67]],[[435462,126757],[34,-29],[-61,-39],[-5,54],[32,14]],[[435207,127760],[-18,13],[35,24],[6,-15],[-23,-22]],[[435184,128278],[-2,31],[30,5],[-7,-34],[-21,-2]],[[435187,128188],[-15,20],[29,4],[-4,-19],[-10,-5]],[[435172,127841],[-12,16],[20,9],[2,-19],[-10,-6]],[[435158,128087],[-18,8],[1,15],[23,4],[-6,-27]],[[435112,127961],[-46,34],[2,49],[62,-11],[-18,-72]],[[435041,128039],[1,58],[32,6],[-1,-33],[-32,-31]],[[424286,147806],[-2,41],[30,2],[1,-45],[-29,2]],[[419055,155075],[30,36],[44,-17],[-17,-20],[-57,1]],[[419091,154614],[-31,14],[3,15],[22,10],[6,-39]],[[419023,154821],[-6,49],[34,-24],[-7,-25],[-21,0]],[[419041,154579],[-12,16],[13,19],[8,-20],[-9,-15]],[[418995,155053],[-1,42],[27,23],[-7,-46],[-19,-19]],[[418573,155350],[-4,38],[17,7],[8,-12],[-21,-33]],[[418346,155738],[1,30],[35,25],[-15,-41],[-21,-14]],[[418055,156180],[4,-25],[-10,-4],[-5,25],[11,4]],[[410947,174480],[1261,3453],[2599,-1122],[-3342,-4047],[-518,1716]],[[412992,176358],[-139,120],[-38,109],[389,-162],[-212,-67]],[[410853,173880],[-218,-282],[-290,227],[484,342],[24,-287]],[[407671,172208],[75,115],[48,-139],[-61,-14],[-62,38]],[[270618,72895],[-7,82],[41,-2],[-4,-56],[-30,-24]],[[255362,75095],[0,106],[93,-44],[-36,-67],[-57,5]],[[237931,94712],[-21,13],[37,35],[-1,-27],[-15,-21]],[[237840,94714],[-12,0],[-17,14],[35,28],[-6,-42]],[[237371,95432],[-27,35],[-2,33],[41,-23],[-12,-45]],[[237121,95679],[4,44],[43,-18],[-9,-26],[-38,0]],[[236994,95858],[-9,27],[21,17],[8,-30],[-20,-14]],[[236509,96135],[27,56],[42,-1],[-34,-92],[-35,37]],[[235733,96640],[-51,35],[14,78],[73,-42],[-36,-71]],[[235229,97577],[2,-46],[-23,-7],[3,50],[18,3]],[[235000,97345],[50,-46],[1,-80],[-93,20],[42,106]],[[234403,97955],[30,84],[29,-1],[-19,-62],[-40,-21]],[[234306,97850],[-1,36],[45,1],[-12,-36],[-32,-1]],[[234308,98097],[18,-30],[-33,-23],[-11,29],[26,24]],[[234191,98056],[-21,61],[4,27],[45,-27],[-28,-61]],[[233932,98181],[11,93],[111,122],[-1,-60],[-121,-155]],[[233581,98346],[-13,64],[239,187],[-70,-151],[-156,-100]],[[232802,98321],[192,256],[261,-25],[-63,-92],[-390,-139]],[[232236,99303],[3,51],[37,0],[-7,-17],[-33,-34]],[[231204,99944],[-57,72],[143,-8],[-32,-90],[-54,26]],[[228370,102127],[-5,147],[86,62],[-18,-110],[-63,-99]],[[115951,143259],[-1102,-1608],[-586,1566],[2296,978],[-608,-936]]]}